number,title,short_desc,Desc1,Desc2,hours,website,astc_travel_passport_participant,icon_color,long,lat,image_url,thumb_url,is_video,city,state,zip,address
1,American Museum of Natural History,"The American Museum of Natural History is one of the largest museums in the world, with more than 32 million specimens including a 94 foot long blue whale, the largest meteorite on display in any museum worldwide, and a 563 carat star sapphire. ","The American Museum of Natural History is one of the largest museums in the world.  The museum complex consists of 45 permanent exhibition halls, as well as a planetarium and library.  The museum holds more than 32 million specimens of human, animal, plant, fossil, mineral, rock, meteorite, and human cultural artifacts.  ","Must See: Scales of the Universe exhibit,  Hayden Planetarium, 94 foot long blue whale, giant sequoia, Barosaurus  and other dinosaur skeletons, 563 carat Star of India, Ahnighito meteorite (largest on display in any museum worldwide), and butterfly conservatory. (seasonal).",Open daily. 10 AM-5:45 PM,http://www.amnh.org/,No,R,-73.971719,40.782032,https://scontent.cdninstagram.com/hphotos-xaf1/t51.2885-15/s306x306/e15/11094445_932211323475908_199504105_n.jpg,https://scontent.cdninstagram.com/hphotos-xaf1/t51.2885-15/s306x306/e15/11094445_932211323475908_199504105_n.jpg,,New York,NY,10024,Central Park W & 79th St
2,BNL Science Learning Center,""" The Science Learning Center offers programs to students in grades 1-12, featuring interactive exhibits, hands-on labs, and programs that demonstrate basic scientific principles.""  - from https://www.bnl.gov/education/",""" The Science Learning Center offers programs to students in grades 1-12, featuring interactive exhibits, hands-on labs, and programs that demonstrate basic scientific principles.""  - from https://www.bnl.gov/education/",Must See: The hands-on labs.,Hours: by reservation,http://www.bnl.gov/education/static/slc/,No,R,-72.873618,40.864576,https://www.bnl.gov/education/photos/carousel/D2040710-375px.jpg,https://www.bnl.gov/education/photos/carousel/D2040710-375px.jpg,,Upton,NY,11973,"Building 438, Brookhaven National Laboratory"
3,The Brooklyn Children's Museum,The Brooklyn Children's Museum was the first museum in the United States to cater specifically to children,"""The Brooklyn Children's Museum was the first museum in the United States to cater specifically to children.  The museum offers interactive learning adventures through hands-on exhibitions, multicultural performances, creative workshops and an extensive collection of cultural artifacts and natural science specimens.""",Must See: The Water Lab and the blue sand pit.,Open Tuesday - Sunday 10 AM - 5 PM,http://brooklynkids.wpengine.com/,Yes,R,-73.943996,40.674454,http://ontherealny.com/wp-content/uploads/2013/03/waterfun.com_.jpg,http://ontherealny.com/wp-content/uploads/2013/03/waterfun.com_.jpg,,Brooklyn ,NY,11213, 145 Brooklyn Ave
4,Buffalo Museum of Science,"The museum contains more than 700,000 specimens, most of which pertain to the Greater Niagara region, and cover areas such as anthropology, botany, entomology, mycology, paleontology, and zoology.  ","""Since 2010, the BMS has been on an aggressive path to renovate all of the museum's permanent exhibit experiences, transforming its former diorama-based exhibits into eight highly interactive and immersive science studio exhibit spaces...The museum has also added the Explorations early childhood gallery to its permanent offerings, as well as the National Geographic 3D Cinema presented by M&T Bank...A significant part of the Museum's collection of over 700,000 specimens pertain to the Greater Niagara Region and form by far the most complete record of life in all of its forms in this area in anthropology, botany, entomology, mycology, paleontology and zoology."" - from http://www.sciencebuff.org/site/aboutus",Must See: The rooftop observatory (opening in 2016) and Seymour the Mastodon and Stanley the Albertosaurus.,Open daily. 10 AM-4:00 PM,http://www.sciencebuff.org/,Yes,R,-78.843439,42.905918,http://www.sciencebuff.org/site/images/sideads/seymour-sidead.jpg,http://www.sciencebuff.org/site/images/sideads/seymour-sidead.jpg,,Buffalo,NY,14211,1020 Humboldt Pkwy
5,The Children's Museum of Science and Technology,"The Children's Museum includes interactive exhibits covering a range of areas such as construction, maker spaces, and nano-scale exploration. ","All exhibits at the Children's Museum are designed with science discovery and play in mind.  Exhibits include the Construction Junction, Maker Space, Move It / Shake It, Nature Place, and Nano Exploration.  ","Must See: The Magnetic Ball Wall, planetarium, and the Skyline Tool Box",Open Wednesday from 1 PM - 5 PM and Thursday -Sunday 10 AM - 5 PM,http://www.cmost.org/,Yes,R,-73.697878,42.677008,http://www.cmost.org/images/slides/a_young_explorer.jpg,http://www.cmost.org/images/slides/a_young_explorer.jpg,,Troy,NY,12180, 250 Jordan Rd
6,Hudson River Museum,"The museum contains an extensive collection of art works from the Hudson River school, and also features exhibits on the history, science, and heritage of the region.  Also featured are the Andrus Planetarium and the Glenview Mansion. ","Founded in 1919 as Yonkers Museum, the facility the largest museum in Westchester County.  The museum contains an extensive collection of art works from the Hudson River school, and also features exhibits on the history, science, and heritage of the region.  The museum is now home to the only public planetarium in Westchester County.  Central to its history is the Glenview Mansion, a house built in 1877, which contains six period rooms.  ",Must See: The Andrus Planetarium and the Glenview Mansion period rooms. ,Open Wednesday - Sunday 12 PM - 5 PM,,Yes,R,-73.896375,40.95412,https://s-media-cache-ak0.pinimg.com/736x/66/4c/a7/664ca7a3fa54628df324e01b3b2b5602.jpg,https://s-media-cache-ak0.pinimg.com/736x/66/4c/a7/664ca7a3fa54628df324e01b3b2b5602.jpg,,Yonkers,NY,10701,511 Warburton Ave
7,"Intrepid Sea, Air & Space Museum","The Intrepid Sea, Air & Space Museum is dedicated to the exhibition and interpretation of history, science and service related to the aircraft carrier?Intrepid.","""The Intrepid Sea, Air & Space Museum is dedicated to the exhibition and interpretation of history, science and service as related to its home aboard the aircraft carrier Intrepid, a National Historic Landmark. As you explore the Museum you will be able to examine original artifacts, view historic video footage and explore interactive exhibits."" - from http://www.intrepidmuseum.org/The-Intrepid-Experience/Exhibits.aspx","Must See: The Enterprise space shuttle, Growler (the only American guided missile submarine open to the public), and Concorde plane.","Open Monday - Friday 10 AM - 5 PM, and Saturday, Sunday, and Holidays 10 AM - 6 PM (Spring / Summer Hours); Open daily 10 AM - 5 PM (Fall/ Winter Hours)",,Yes,R,-73.99925,40.763658,http://www.perkinswill.com/sites/default/files/project-imagery/Intrepid_interio_main7.jpg,http://www.perkinswill.com/sites/default/files/project-imagery/Intrepid_interio_main7.jpg,,New York,NY,10036,Pier 86 W 46th St and 12th Ave
8,Kopernik Observatory & Science Center,The Kopernik Observatory and Science Center's mission is to offer hands-on investigations and outreach programs for educating all ages about astronomy and science,"""The Kopernik Observatory and Science Center's mission is to offer hands-on investigations and outreach programs for educating all ages about astronomy and science using advanced optical telescopes, computers and other tools. It is the first science laboratory facility in New York State designed for K-12 teachers, students and their families and has been one of the best-sited and best equipped public observatories in the Northeast United States for nearly the last 40 years."" - from http://www.kopernik.org/visitor-info/about-kopernik/",Must See: The observatory telescopes and the adults-only Moonlight Caf?,Open Fridays from 7:30 PM (March - November); only on special weekend nights once a month from 6:30 PM (December - February); Daily Free Tours on weekdays from 10 AM - 2 PM (by appointment),http://www.kopernik.org/,Yes,R,http://www.amnh.org/,42.001995,https://origin.ih.constantcontact.com/fs037/1104667042142/img/120.jpg,https://origin.ih.constantcontact.com/fs037/1104667042142/img/120.jpg,,Vestal,NY,13850,698 Underwood Rd
9,Long Island Children's Museum,"The Long Island Children?s Museum is home to 14 hands-on, interactive exhibit galleries, a 145-seat state-of-the-art theater and three classroom-size learning studios.","""The Long Island Children?s Museum today is home to 14 hands-on, interactive exhibit galleries, a 145-seat state-of-the-art theater and three classroom-size learning studios."" - from http://www.licm.org/backgrounder.php","Must See: Climb-It (two-story climbing structure), and giant bubbles exhibit; TotSpot for youngest visitors",Open daily from 10 AM - 5 PM (June 30 - August 30); Open Tuesday - Sunday from 10 AM - 5 PM (September- June),http://www.licm.org/,Yes,R,-73.600918,40.728238,http://cache.boston.com/bonzai-fba/Third_Party_Photo/2007/03/16/1174083059_1867.jpg,http://cache.boston.com/bonzai-fba/Third_Party_Photo/2007/03/16/1174083059_1867.jpg,,Garden City,NY,11530,11 Davis Avenue
10,Long Island Museum of Science and Technology,"The museum's main goal is to excite and enrich young people, many of whom will be inspired to fill the 21st Century need for a technologically skilled workforce.",""" Long Island's ""hands-on"" science and technology center is designed to expand to major proportions and world-class quality. Its main goal is to excite and enrich young people, many of whom will be inspired to fill the 21st Century need for a technologically skilled workforce."" - from http://techisland.org/museum.asp",Must See: The bed of nails. ,Hours Unknown,http://techisland.org/museum.asp,?,R,-73.124489,40.913346,http://techisland.org/images/bedofnails.jpg,http://techisland.org/images/bedofnails.jpg,,Stony Brook,NY,11794,"Stony Brook University, 127 Engineering"
11,Cradle of Aviation Museum ,"Explore over 150,000 square feet featuring 75 air and spacecraft from a hot air balloon to an actual Apollo Lunar Module and learn about why Long Island is called the Cradle of Aviation. ","""Explore over 150,000 square feet featuring 75 air and spacecraft from a hot air balloon to an actual Apollo Lunar Module and learn about Long Island's role and why we are called the Cradle of Aviation. Our eight exhibit galleries are in chronological order and throughout the museum our volunteer docents are there to share their aerospace experience. There are over 30 hands-on exhibits, a half dozen cockpits to climb into and many short films through-out the exhibits."" - from http://www.cradleofaviation.org/plan_your_visit/galleries.html","Must See: Charles Lindbergh's first plane (Jn-4 Jenny), Spitit of St. Louis, and the Jet Blue Sky Theater Planetarium. Also the Junior Jet Club for smaller visitors. ",Open Tuesday - Sunday 9:30 PM - 5:00 PM ; Open Mondays that fall on holidays and school breaks.,https://www.cradleofaviation.org/,,R,-73.597389,40.728077,http://www.williammaloney.com/aviation/cradleofaviationmuseum/RepublicP47Thunderbolt.jpg,http://www.williammaloney.com/aviation/cradleofaviationmuseum/RepublicP47Thunderbolt.jpg,,Garden City,NY,11530,Charles Lindbergh Blvd.
12,Long Island Science Center,A 'learning by doing philosophy' underpins the Science Center's programs and exhibits; come explore more than 30 hands-on exhibits.,"The mission of the Long Island Science Center is to promote the knowledge and love of Science, Technology, Engineering and Mathematics. Explore more than 30 hands-on exhibits in the Center. ""This 'learning by doing philosophy' underpins the Science Center's programs and exhibits.  As people freely explore the materials and activities available, they become empowered and motivated to learn more about Science and life."" - from http://www.lisciencecenter.org/ABOUTUS.aspx",Must See: 30 hands-on exhibits,Open Saturdays 11 AM - 4 PM (September - June); Open 11 AM - 4 PM Tuesday - Saturday (July and August),http://www.lisciencecenter.org/,Yes,R,-72.663195,40.916696,http://li4kids.com/images/li4kids584.jpg,http://li4kids.com/images/li4kids584.jpg,,Riverhead,NY,11901,11 West Main Street
13,Mid-Hudson Children's Museum,"The Mid-Hudson Children's Museum is the ideal destination for families with children ages 0-6, offering exhibits that get kids moving, exploring, building, pretending, collaborating, creating and discovering. ","""The Mid-Hudson Children's Museum is the ideal destination for families with children ages 0-6. We celebrate childhood and are proud to offer exhibits that get kids moving, exploring, building, pretending, collaborating, creating and discovering. Our exhibits focus on nature, science, literacy, art, music and community and allow children the opportunity to develop foundational learning skills."" - from http://www.mhcm.org/web/play/home",Must See: The Wonder Dome (sensory exhibit exploring light and color) and the Imagination Playground.,Open Tuesday - Saturday 9:30 AM - 5 PM; Sunday 11 AM - 5 PM,http://www.mhcm.org/,Yes,R,-73.93922,41.708785,http://kids.media.timeout.com/images/resizeBestFit/100516850/660/370/image.jpg,http://kids.media.timeout.com/images/resizeBestFit/100516850/660/370/image.jpg,,Poughkeepsie,NY,12601,75 N Water St
14,Milton J. Rubenstein Museum of Science & Technology (AKA: The Discovery Center),"Explore the human body, fossils and space in this kid-oriented learning center. ","Kid-oriented  center with a domed IMAX theater explores the human body, fossils & space.  Permanent exhibits include: Earth Science Discovery Cave, Life Sciences, the Lockheed Martin Flight & Space exhibit, Science Playhouse and Technotown.","Must See: Giant replicas of the human haeart and brain, fossil pit, and Coral Reef Adventure Tank, Science Playhouse (climbing maze), Silverman Planetarium, and giant kinetic sculpture. ","Open Wednesday - Sunday 10 AM - 5 PM; also open Mondays and Tuesdays during holidays / school vacations, and Tuesdays in the summer",http://www.most.org/,Yes,R,-76.155556,43.047102,http://denpubs.media.clients.ellingtoncms.com/img/croppedphotos/2012/01/27/SciencePlayhouseTunnel_t670.jpg?b3f6a5d7692ccc373d56e40cf708e3fa67d9af9d,http://denpubs.media.clients.ellingtoncms.com/img/croppedphotos/2012/01/27/SciencePlayhouseTunnel_t670.jpg?b3f6a5d7692ccc373d56e40cf708e3fa67d9af9d,,Syracuse,NY,13202,500 S Franklin St
15,Museum of Mathematics,,,Must See: ,,http://momath.org/,No,R,-73.987242,40.743405,http://gallivant.com/p/2012/12/museum-of-math-2.jpg,http://gallivant.com/p/2012/12/museum-of-math-2.jpg,,New York,NY,10010,11 E 26th St
16,Museum of the Earth at the Paleontological Research Institution,"Explore Earth's prehistoric past through fossils, science-inspired art, and engaging displays.  Watch paleontologists uncover fossils and dinosaur bones?","""Explore Earth and its prehistoric past?from the tiniest trilobite to the mighty mastodon? through engaging displays, hands-on features, stunning fossils, and science-inspired art...Watch paleontologists uncover dinosaur bones and other exciting fossils in Prep Lab.
Journey 540 million years back in time with the 500-foot mural Rock of Ages, Sands of Time."" - from http://www.priweb.org/planyourvisit.php","Must See: The fossil lab (take home your own fossils), Hyde Park Mastodon (one of the most complete mastodon skeletons ever found), and the 44 food Right Whale.  ",Open Monday - Saturday 10 AM - 5 PM; Sunday 11 AM - 5 PM (Summer Hours).  Monday 10 AM - 5 PM; Closed Tuesday - Wednesday; Thursday - Saturday 10 AM - 5 PM; Sunday 11 AM - 5 PM (Winter Hours).,http://www.priweb.org,Yes,R,-76.535936,42.466494,http://blogs.cornell.edu/bioee1780/files/2012/10/photo-1pag61d.jpg,http://blogs.cornell.edu/bioee1780/files/2012/10/photo-1pag61d.jpg,,Ithaca,NY,14850,1259 Trumansburg Rd
17,National Soaring Museum,,,Must See: ,,http://www.soaringmuseum.org/,?,R,-76.901785,42.12203,http://www.williammaloney.com/aviation/NationalSoaringMuseum/NationalSoaringMuseum.jpg,http://www.williammaloney.com/aviation/NationalSoaringMuseum/NationalSoaringMuseum.jpg,,Elmira,NY,14903,51 Soaring Hill Dr
18,"Natural History Museum of the Adirondacks, The WILD Center","This 54,000 square foot center is dedicated to helping visitors understand the Adirondacks region, and includes exhibit halls, animal encounters, live shows, and the opportunity to take a woodland showshoe to the Raquette River.  ","""There's a day's worth of things to see and do at the 54,000-square-foot Center and on our 81-acre campus. Come explore the exhibit halls, create your own work of art, meet one of our many animals at an animal encounter, take a woodland snowshoe down to the Raquette River, join us for a live show, or watch one of many amazing films produced by The Wild Center. "" - from http://www.wildcenter.org/","Must See: The ""Moments, Reimagining Nature through Art"" exhibit (create your own art) and the ""Wild Walk"" (coming in 2015) ","Open Memorial Day-Labor Day, 10 AM-6 PM; Labor Day - Columbus Day, 10 AM-5 PM; closed month of April; Friday, Saturday, and Sunday 1 PM - 5 PM until Memorial Day",http://www.wildcenter.org/,No,R,-74.436104,44.219734,http://www.northcountrypublicradio.org/news/images/wildwalk1.jpg,http://www.northcountrypublicradio.org/news/images/wildwalk1.jpg,,Tupper Lake,NY,12986,45 Museum Dr
19,New York Hall of Science,,,Must See: ,,http://nysci.org/,Yes,R,-73.85143,40.747176,http://archpaper.com/uploads/image/01-situ-studio-design-lab-newyork-hallofscience-archpaper-nyc.jpg,http://archpaper.com/uploads/image/01-situ-studio-design-lab-newyork-hallofscience-archpaper-nyc.jpg,,Corona,NY,11368,47-01 111th St
20,New York State Museum,The nation's oldest and largest state museum includes exhibits tracing New York's natural and cultural past including 9/11 artifacts and a 1890s carousel.,"The nation's oldest and largest state museum, the museum houses art, artifacts (prehistoric and historic), and ecofacts that reflect New York?s cultural, natural, and geological development.  Permanent exhibits include fossils from the area, birds of New York, Harlem in the 20's, minerals of New York, and others. ","Must See: An 1890's carousel, the Cohoes Mastodon skeleton, and fire fighting vehicles from the 19th and 20th centuries.  ",Open Tuesday - Sunday 9:30 AM - 5 PM; Closed Mondays.,http://www.nysm.nysed.gov/,No,R,-73.761752,42.648379,http://famouswonders.com/wp-content/uploads/2010/11/Albany-State-Museum.jpg,http://famouswonders.com/wp-content/uploads/2010/11/Albany-State-Museum.jpg,,Albany,NY,12230,222 Madison Ave
21,New York Transit Museum,,,Must See: ,,http://web.mta.info/mta/museum/,Yes,R,-73.989645,40.690333,http://www.insidebusinessnyc.com/wp-content/uploads/2013/05/nycmtamuseum6.jpg,http://www.insidebusinessnyc.com/wp-content/uploads/2013/05/nycmtamuseum6.jpg,,Brooklyn,NY,11201,Boerum Place & Schermerhorn Street
22,Niagara Science Museum,"""We are proud to be able to present our artifacts-antique science instruments and philosophical apparatus-in recreated 'old fashion' functional laboratories.""  The museum covers science from 1870-1930.  ","""The Niagara Science Museum (NSM) is a sanctuary for the preservation and appreciation of old science instruments and philosophical apparatus.""  - from http://www.niagarasciencemuseum.org/aboutus.htm ",Must See: The Discharge in Gases Laboratory (watch sparks jump) and other live demonstrations (instruments are fully functioning),"Open Tuesday, Thursday, Saturday, and Sunday from 12 - 2 PM (June 1st - October 15th); by appointment only during September and October.",http://www.niagarasciencemuseum.org/, ,R,-79.044379,43.119936,http://artvoice.com/issues/v8n25/art_of_summer/art2,http://artvoice.com/issues/v8n25/art_of_summer/art2,,Niagara Falls,NY,14305,3625 Highland Ave
23,Roberson Museum and Science Center,,,Must See: ,,http://www.roberson.org/,Yes,R,-75.91891,42.094613,http://media-cdn.tripadvisor.com/media/photo-s/06/17/4f/78/roberson-museum-and-science.jpg,http://media-cdn.tripadvisor.com/media/photo-s/06/17/4f/78/roberson-museum-and-science.jpg,,Binghamton,NY,13905,30 Front St
24,Rochester Museum and Science Center,,,Must See: ,,http://www.rmsc.org/,Yes,R,-77.58738,43.152621,http://luckeyclimbers.com/wp-content/uploads/2014/07/rochester2edited.jpg,http://luckeyclimbers.com/wp-content/uploads/2014/07/rochester2edited.jpg,,Rochester,NY,14607,657 East Ave
25,Schenectady Museum of Innovation and Science ,,,Must See: The planetarium,,http://www.misci.org/,Yes,R,-73.933717,42.81183,http://media.dailygazette.com/img/photos/2015/01/03/13trains2.jpg,http://media.dailygazette.com/img/photos/2015/01/03/13trains2.jpg,,Schenectady,NY,12308,15 Nott Terrace Heights
26,Sci-Tech Center of Northern New York,,,Must See: ,,http://www.scitechcenter.org/,Yes,R,-75.913118,43.974364,http://svcdn.simpleviewinc.com/v3/cache/www_iloveny_com/F19554034DBA714C1029079346AB98F3.jpg,http://svcdn.simpleviewinc.com/v3/cache/www_iloveny_com/F19554034DBA714C1029079346AB98F3.jpg,,Watertown,NY,13601,154 Stone St
27,Science Discovery Center of Oneonta,,,Must See: ,,http://www.oneonta.edu/sdc/,Yes,R,-75.062401,42.46796,http://www.oneonta.edu/sdc/images/rotate/image-4.jpg,http://www.oneonta.edu/sdc/images/rotate/image-4.jpg,,Oneonta,NY,13820,108 Ravine Parkway
28,Science Museum of Long Island,,,Must See: ,,http://www.smli.org/,?,R,-73.701804,40.815173,http://4.bp.blogspot.com/-HreUvoye-pA/VFjxw1UNIiI/AAAAAAAAAHs/5IpX5LOj4JI/s1600/IMG_6870.JPG,http://4.bp.blogspot.com/-HreUvoye-pA/VFjxw1UNIiI/AAAAAAAAAHs/5IpX5LOj4JI/s1600/IMG_6870.JPG,,Manhasset,NY,11030,1526 N Plandome Rd
29,Sciencenter,"The museum offers guests of all ages more than 250 exhibits, educational programs, a gift shop, and seasonal outdoor science playground and mini-golf course.","""The Sciencenter inspires excitement for science through interactive exhibits and programs that engage, educate and empower. Our non-profit, hands-on museum offers guests of all ages more than 250 exhibits, educational programs, a gift shop, and seasonal outdoor science playground and mini-golf course."" - from http://www.sciencenter.org/plan-your-visit.html","Must See: A thermal image of yourself on a 50"" screen in the Mars and Stars Exhibit, the mini golf course, the world?s only Kevlar cable suspension bridge (Science Playground), and the Sagan Planet Walk . For the littlest ones, visit Curiosity Corner (water table, infant area, and more).",Open Tuesday - Saturday 10 AM - 5 PM; Sunday 12 PM - 5 PM; closed Monday,http://www.sciencenter.org/,Yes,R,-76.504245,42.450043,http://cdn.mntm.me/6e/d7/bf/Sciencenter_Ithaca_New_York-6ed7bf919571486ca5c73484fb14dd07.jpg,http://cdn.mntm.me/6e/d7/bf/Sciencenter_Ithaca_New_York-6ed7bf919571486ca5c73484fb14dd07.jpg,,Ithaca,NY,14850,601 1st St
30,Sony Wonder Technology Lab,"The Sony Wonder Technology Lab (SWTL) is a FREE four-story, interactive technology and entertainment museum for all ages. ","""The Sony Wonder Technology Lab (SWTL) is a FREE four-story, interactive technology and entertainment museum for all ages...Through its permanent exhibits and innovative programs, including Sci-Tech workshops, ongoing screenings and associations with well-respected local non-profit and educational institutions, SWTL aims to educate and cultivate the next generation of leaders in media, science, technology and the arts."" - from http://www.sonywondertechlab.com/admission","Must See: the Sensi-Tile exhibit, Shadow Garden and Sand Interactive, Music Mixer (collaborate on a music track), and Moviemaker (create your own trailer). Also worth seeing the Dance Motion Capture, WSWL Production Studio, Animation Studio, and GameBuilder exhibits.  ","Open Tuesday - Saturday 9:30 AM - 5 PM; closed Sunday, Monday, and major holidays (reservations required)",http://www.sonywondertechlab.com/,?,R,-73.973385,40.761522,"data:image/jpeg;base64,/9j/4AAQSkZJRgABAQAAAQABAAD/2wCEAAkGBxQTEhUUEhQVFhQXFxcYFhcYGBgUGBgYGBcXGBgXFxcaHCggGBwlHRUYITEhJSkrLi4uFx8zODMsNygtLisBCgoKDg0OGxAQGywkICYsLC0sLCwsLCwsLCwsLCwsLCwsLCwsLCwsLCwsLCwsLCwsLCwsLCwsLCwsLCwsLCwsLP/AABEIALcBEwMBEQACEQEDEQH/xAAcAAACAwEBAQEAAAAAAAAAAAAEBQIDBgEHAAj/xABFEAABAgMGAwUGBAMGBAcAAAABAhEAAyEEBRIxQVEiYXEGE4GRoTJCscHh8AcjUtEUYqIkM3KCsvEVY5LCFlNkc6PS4v/EABsBAAIDAQEBAAAAAAAAAAAAAAMEAQIFAAYH/8QAOBEAAQQABAIIBgIBAwUBAAAAAQACAxEEEiExQVEFEyJhcYGR8DKhscHR4RQj8QZCcjNSYqLiFf/aAAwDAQACEQMRAD8A8mlJLxrNkN2glqfWixTZADmih16gxtYfFO6vNeiVfC1ztktnoGcRM1rqcuYSNFV3cL9WFe1IIiMq61FSIXljN2rArqURDGWoJRslFI1Ym0EBx1RcmSTlDLGEoTngKUyRQxWaO2kLmyao+6rU2FC+NAfClROFJUzqA3oPKFGkRkurX56IONL3R0CRx0Qt4zyS3dBI5Bng4nDtgogYA347QpvGac5kzxWo/OBg0KApMmNpdZ1Wk7GXOu1LJd8IclRJ1YDnC0mJEJBdqmBhzI0tbovSLjuopUEEa58t4XxWIDm5gvHz4N7saIXc077RXenuSwAKfNoRwkzut1O63cdgoxCMgotXmShU/wCKPRuNsPgs7DGnjxC39nKChgTuoa6kPyokdI+eSBzXbL3DnDKjpUtg4OxY1Y1p50g2GFlecx2bNYOmmnehr07QyLGAJqjjUPYSCo8i2g6w7JMxtWUtG8QAiu0dwj7jvSVaEd5KU41DMUnYg5PEiQPGiYwzmu1HD5f5Sj8TLIpdhmFAdUsiZhbEdQqnJLmOAB+JMSHJI1w4HXzBHyX59s1kBmDEHBOe0S9lBMTSkMPNa3s7ZO7CxTQxMDqBBXmukJTIWlE2sQ2FWBMbrWyU0oWfwrCUwtxXoMPNTAKTqzEVUNTwj6Qm+xojdcKLgfBMFoILA1OcCYRxSOLzj4TqURIQTRWkEsDZYrw6TR52U8DOTUCDh9NSBjGc3rS/Pvam912u0LnF8DlMsfpQKADrmeZi2V2XMvc4LDNw8QjG+58feiS4oqm0TYLYqVMRNSeJCgsdUl29GjihyxNkYWHYil+ll6E1T+8CzB2268c6N0dF2oCiqWl/ZV4A/vFLdzXPiiJvIfRfnu4UpmzEArCTiFCM2IyOVY9Bh+pljPap1HQr10rntqheoTfthfaULVJCSoguoksEk1ATvQgwOHpHqoery2iGKzvxSexlS5ZVgVhSQCpiUudMW8OYXGNlGQiihPiLe0pgQ0hqQESoUgItQK61YhI2izWtCqSr0kQw0oRCb3FencrExKUKYEB6isEcGyMyk+iTxOH61uUmlVNnlRJOp0yixdwV2MDQByUAIGRasaO6jOKjFKI2XMDWpTPnBMwILuddKvCb52MmEbuKcYwuZmC9Y/CEACaKOQPnkfGFeko6a0pjCSWXBejypTLSW3bSMtzuyQsuSO8UH14K2+g8pQZ6RTD6SArRnGZhFLx+Yaq6x6rgV5aI1It/d09OBJzBFDrhIPwJEeBxDT1hC9qZG5LTVDA5P+o61esGww0Xn8Q4CTa+fPVea9uRgnWjE5WtKFpUoMlKGCeE5EgjLOOkj/tN7K8OHbJF1jt7N997fhJ/w57Upsc2aq0rWpExAwoo+NJxDMsBhJYkh8oI1uU2ETKIjbWXzr5L2C9QmbKUhyy0qD/4qU8zB7pJYqRrmW3fceoXhHae4TY5j4/ylLSmX700uapbLhD8ROgpWLB2dwHei4PHDFDJl7QBvgNOPmeCf3WQU4UmkNTR5dgsbEsLXZn6Ku9JBQK5HIxVjrU4Z4cdFK7Z1G108c4XlGtp+Oci2+ie2Igiugb6wm+7RGvaWkngmoUThL1MCbxFIOIkJyuvUomWsgtF6BFrKfK9shbzQF/3iZFnnzNUy1qGnFhOEebQUAUqYW34lsTuJC8AchLbADJtIZcTkrgvoA3tDqTAVZVvQxVSv01ZAVS0saBKdeQgFhtWvFZHS5sh0vZXi2DX79Ip1fJMNxjQNRqvzJd03DNlq2Wk+sNt3XrStH2tugJtBmBsMwOzNxakb7+MHMRDWu5riU+sVslIuVclkiYqckULqLKSsFQOScKDUNXxgmDaf5IcNgD9FEhHVkLKgxtgpRUz5IJerv7T5bN6Rk4gnrjqjj4RSKknh4iHGe1M41YZCWW7zS7hroqFXrLG55gfvAj0lCDWpUiByHtVvSvCA4DuXp08IXxOOZIGhnPVFjhLSSUbds9lhLAOkmlNaP6w1gZu3k5i0CdnZzJzLjWCRKAlWolcxWIsgmjsMKWem5hIT9txv4TSZ6oZQOYT5CAY0wLWa55BpZe1Xe61qViBUolCm4CH0O2nKPJ4todO8g2b5raY9zY2GtKXpPYC0lEwc/H/AHjfxkeeBZbcR1UunFesSp4cGPNOYVBxDRJZCGv21/lmnq3jBMLF206Zswul5ZNVnG+TT3DwXnAakK1HZ61nAhtvhT1YR5HGx/2O8VvtxJ6kV7paqyzBQ1difoYBFYCz2yDPm46n9Lz38WO5KZZ79KJzKCJZCllYzAYezUUUaVMMHV1DdMYCV5JyC2n5a+9F5mgUEssZntO4YAj2Tz15CDsjyvLL1TjtHl4228+a9h7NX/30oJWeJCQFDmBRQ5GKTjI0aaryWJc+KTK82w6g8q4LFdvp/eWySjPupa1nZ1kBPjQwXo9lyB3vktjohjmwvc7iQPHc/dV3FaePxb+podn1CD0jHbE+vxDyFZUAUOoLH0JhFujli4J1TD0SeylmgLnWU+8kG02lzqBoFWuqpLLpojLKuLLNeTumsi0VcxRzFRsxDrKzX4oW1rBMD1WpCf6gT6AxwFaLZ6EAmxodyBK8hWo4Ekg1FObHD8oNnttL2oqzSomriiuoJiq5fpOSpkoKDmBryELNdY1XiXs6tw6s1asMpW4jusCk4WS91+drbdcyTMEuahSFgOUmh3BGhHOopB43h4tq91JG5hor0G0XrYJEmzLmy5dqUU/nyy5XiZOFSJpJVLDAgocpNKAuY2J2xBpzGtNCOfEEclnQPlLyCNL+SR9oL8l2qcVyLMiXJ7uWEpAAVLEtOGiv06MKZHR4UwrnNcD71TMpFapO8axeBqlwFSbUMQqMJGefgRpGdLiGveKCLkpqEvC0EqUBQEgnQuwofKAyzuILBsd+9WjZoCUDCqKvolcj7nmgTUv0/aNDo2QNnGbwQMQ22GlsrDhxpx+y9Y9UByWNLmynLus/abJjm2nuqpAKtRQMT5RiS4YvllLTwT8cuSKPPvsn5nFFikzAQVL4TkW2p0jQGJc3Dg8aCQ6sPxLmnYJNabUthLUr8oezskn2iNgTVowHHNYoV8z4laGcuArhdDxWp7PiZKMpZI7tZASygSCQSPh6xo4aY2IydCsLFuD8wHxDVaW9fxOk2aYJWBcxSWxlJACeTk1MKYhzI3lp3VsJgJ52iSwBw703t1/S7RZkzZSnSscOhfIuNCKiHMHFbgRsmJLiYWndZcF0+J+UHld/cfBZD9JfIKCu1MuxJHeBSirJKWxMMzUhhGFjgC5aGDhlmLg3bmUp7Q/irNmSu7sqFSCTxzCQpRGgTTh5nyhEMA1Wnh+jAxxMhvuH3WCm2ta1Ypi1LVSqlFRplUl4stJsbWimivBXTLcpUzHmpRBbfRvlFwTnzcUPqgG5StX/ABa5C0Ll4knCHBrmSCG26xpviDmkFYpgZiGOY6iLQ0u9j30yYrUIDqJejk+q/SJh7GbTkE11AbC1jffukf2Wn45mL+f7+PpEOOZhKS6UZlhruWl7RzsNnbUqAHm/yhAmisDAMue+QSmTakYsGNOMZpcOOo0gAtPvgkyZ8prmmkkxKRejZKo5LPCOlTI5ALVk/wAUxisiD+mak9XSofP0ipXoP9OODcQ4Vu37heb2q3BSEJCWCe81zxl8uRjgvWsiLXOde9fJBLjkddQY5QV6z+HnaRU4CzzQMSAAF4iCwoxDZ5V1haS27LBxfR8YcXjj8lsl2ggsT6iJDQRdLFe+RriLWI/EiQJk6XhDKCCCpqMGy5HF95whgpTECV9Zlwon7PHmvO7fZ+7P5jGlGLp6vr0jYbM2UZliT4d8DsrvlsUHNWtxixJcOl3TTQjlSOz3shEc0wOEodRrhps7amNF5Do7O6X1DtEvlBQBWAw3+Q+kJtjeG9YBpzR7F0oLBNTrAjqpUEpjlytTKiwFqCUQixgDETQNlnmBTzgsbBm1PohGTWqWnlzCEghydHzJyDx7CMuawE7rMcAXVwWiu1MiWkJWiX3xBTMKHJNWPEOWkVojU0FmymV7iWk5dxf4SQXOqZJZLykpWrCFag5ZZUhYwGWKm9mtu9P/AMgMdZ7RrVI5D8aVVDt8qRgyxuY4tKakrRzVNKlyimoYKSoHXPWBh7g4dypTZQT3UoX/AGNPerUlQOLjbXjdRfoXHlDWMhDnGRpu9a46o+CkLoWgjbT0Wh7C2lSrOuWSAEL4XepU5UPCh/zQ10ZicrC0t0HFZXS9Mma7mPotAElAwqzJccxuIJJIHy2OSxnnO/M1YTtTZFmepRHCQMPQCvq8ZGKaTISvWdE0+Cm7jf34JXY5IWlslDk7j5Qu3XRaIbYUv4QMXz0rl4RLm0h3oq7LZVFaXBbEHLFtyx3bSOjFuB4Ib3tymitjYRLmowLcrJdJFDw5AHJmGWUEeZDKCxefnMsL8zKy8fPdL5dxTlqIICNakH0D7xoO1TLsfCxtg34I26bOuzMXCgFDEEjF9Rl8IoayUgYqWPFDLtY0srRdrJoNnK0mgIWPH/eMmR465re4rG6LYRiAx3gvKhbZgyWoVJLEhyS5JIqYKZHZcl6L3RjYdCFOy3pOll0TFjk7g9QaQKlSXCwyCntBWms3bWcEj8tCiBU8XmwygjGgrHf0FAXE5iPRFXT27OJpyXSpXtAtgB0ZqgV5xcNY4aHVCxXQLSwdUdQOW6J/EG0YjKlaMpZ+A+B846NmbRC6AjDA+Q8wPfyXns1DGBOFL1ANqsmKqURZGHEdMosAOKq8WKWmuC9VCZLwgBQVQgMTiIxAnUGhrqAcxESMbktZk8FBxs7f4XqgClVxZ8/rC+YDRYAgfJ2rQF+WBVsTJWmYiWQhWJbFQIUEltADwvUxiNcGEtItfXGktIcD7Kx5n2Cy4sCU2q0BJWmZOUBKDVKUpyx7AOX1jRDZn1fZbyG6y5JIg4kdo767eSzd8XzNtqkpUEsgHAlKcLO9HJJbqY0cPhtcrASSs+ad0mruC+kWIIBxHETp7o/eN/DYERC3693D9pB8l7Ie8CV9PhzEVxrS5tBWjIBS+Wh/CkYiZV8mTo4HWOVXOpFWKylSmw03ennDOHiL3IEsmUXauvpAlJCQ2JwTrQH92hjEsEIFbqkBMhtNrqmpWZasQCcaSonZKnPwj0OHl66IPCQxDXMDhWtH5rdKAmHGnCUe6cNX14nyy8okdnQ7rBYTH2HXfisrZLeqcuYhKgUS1ABQqFGrtyG+sWwUweXNGzdL5/4WrM0QMa4jUjZZW3zyidMCcgtQr1jzmNdlneBzWtEwSRNLuSrkTlTFYS1UqYdK/KEw+t9lLmNjbYTm5bt7ycSpiVFKUijlhUgagGnnGpgImuJe7y+6p1vVsATuw3abOJoNAJiiBpklvjGnDA1jTW12PBJYwCQg8Ueu0AgBwSC6a1YircqCEpGhs+nJY74XMedNCs9fhxulJqkkg5UIGJL7ZHwgOLwpdHm4heg6Ia6I2TVivwk1zLeeMFUvxs5AG7/ecY0eYnRbEuIbAc9X3c0wvCzFR4AGWDUsAlixIbOHm4N8lV/hLDEEtLpGgA7JlYrEmZINndmqmYzkL3+TbUhibCBjKavP4iZ8M4n9R3LM9/NkTSlZwqQ4cVFdeYILxnMcWnVbBbFiIg5osFEC+5mIEKSojnF/5Dz2aQjgIstUmFlt6ZjmaZSFfr70pLc0iqo5zzxr1SUmGMdCMOI5Zb+Z2V3aK8yZZkAUwIOJ/aBJejbj1hOPD5ps7jrSp0dhB1gnJ1s6cli1y4Id16NRKIhcj7oLKeGMNYfaXmFikVeVm1bP3svODzs1uvNRC7SlC3XuVkFZKlBAQDlQfOF2StYeapFhRGCGaAm/VKFrc5QAuspsCl8gAmsRuuKuTlFtlyd9kJRXaZYGhKj0SH+LDxiXmmJLGn+py9NFphYgLzgzAaLx6dec1ctEozZikgFkFRKRsANafGLNY0OLqHivbOkcWhtkrki7FnMhNagu4G8Hw7DO6m7DjwUSxmJtu0PLimslAQMKc9TqdnMbcQbEMrUi4l26gpUHEioQrLNIxKDa/bRLiCEu+TKDa5aLnUJmVFVpWooqMifCu6zsjdXixgLN9vpwU7JYeJilw8BjhJdVKZMR2dCrLxtNcCe6QhA4iEsS38zEnLfyhuSQh2RtABRAzTMbJPokl53vMnHiICB7KEhKQAMnwgOeZhObEyS6E6cAnY4Gx7bpxci3lJ5OPIx6box2bDN7ln4oVIUwvu2z5stMlKlBGFglCfabPGoV2pFcdHejXEE+9TwCXwcULHGUjW9ydvBT7JWVUuUorBRiUSyuEsABrHdEgRQHPoSULpR3WSAM1ocEuvG7CqdNIVKwqU4JmJ1zoHObxn4vCSSTOLBoTum4JssTAQbA5KMvs2HL2iUE4qFlmmlMIAPjAZOjXgnUAcET+eRX9bifJFdm7MhFqx96lMuWVFMxRCMRYgYXOdXpoIpg2iOXM7UCx4+Crj5JH4fK1ps1oOCfdqu0KCkJxJUcyUEFzk5I1pGjLjIY29k33JXBwyOZ2wfNY25Zx78qSPdVi5D93aM7BF0uJzjvJ8FpYiNrog13MLeXRd2JImYXIqeadfiPIw1PMcxHBa+GiYGg8UJfCQlwBhFaQBoG6nERtPBXzLvxJAQG4eHSnM67+caOHFN1WbjXNG2wXJKUEMgjEkMCPGhHlBpgC1ecxBLhZCy/bFDrlrVQlCkkf4HPmCryIjAnjb1nqn+ijTHNbsCD6rKwitpESDEoT0zutJmrwqUSkAu5JYVokVJNKAfUGgaHOr5KrWsa4E6JxaezKO7C5a+8NeFIrR3fbI+Rht2FZlsHVP8AV8Qs1OlEFiG8QfhCBBB1QXAjdNbXdapUpK1YQCpqaD3XrrX08L5jE6ikW4yOaUxM4ceaXTJpwkOW2ekFMocEYNopWYUR1yIXL545crkmkWGqhbHsJZqTJutED0Ur/t8o55rRZXSRsBg8Vqk2xqU9IGQskFwC8kkSiVAAFyafMxdrcxpesutU9mznOb5fWNFrWxMyM2VJZXzPzv3QpmvTdyem0TmrzQ6XSYM1yoU4uayY1hJ5E7gZjplBesFLLxUuVpcFqEXeJsvCXGJ2UmikndJ3grAHt5LJE7opA4f5S+VcKrNImmcoKSkYkqSSCoAEsoEUq2pzOwiGQNijJedk+cW3EStEYonTVZy9FIWlHcpJSSorTiUXbCzuX3ygE/VuYBCLB3C1IM7SesO1UrrPZAwAsiEOAcS3W/QkkPyLQzhcI1wrqfM7KvacSesJ8NESmTOBCUMl9kpljo6UxpOhdG0BjfTSkKmHV2p8b+6iqUsljMUo7YlF+WcSYiBZV2lv/aFEWInQkGoLZjU+ER1VK1m9EYi6iKLdJZw9KHI9OcDzUezqm2QteLtfT7nUokd+EBvY4vFwEsfOAz4SWchwOnclpZGxHQWn9gskjAlBSCEpwhw5Y5+eu8M/xAxoaBoEu3GtZq4Iif2UskxDBCUq3FIzZsE0/C2lkzdKTNlzNNDlusrd13yhbFWWSlWJ2UXcEpFWrQBy/wDsIVgmjw+ZjR2vey9FgGuxAY+d1A68BXqtVIWLKtaEKK6B9hTJL0VQio2A3i3WNcacErP0iI5h1RtvNZXtJaVKUWIq9aaav9NDFSK0C1hP1jQVprPbEmSmYX4kg6apFIdhOiQxzi40s4q2gTwQqi3SQc6ildatBXyAEJIRWwjkudqwJlk7z3paw/jwHzceUYmNbkdolujLixZj4EH5arCQivTIuxy1KUEpDqJYdYsxjnuDW7lCkoCynFru4pMuUgs7qmLFFUbXPWgjak6PDSyJm+7j7+SWa8avd5BPbPKTiC5h4VOCD3YAJYukmooHqN+cdiIzDJqezwtamFe2RuYnxSe0y5S1ky3MtJqTVzmz+8YDhcOyWQu/2j3SDi5GgUxfWm/JklCAAk4lLcKDhnBZv83pFOkqtpre/ksZmAjleS69hsll72vvAn8pEss6sNHfJxpk+ucZzoy2rT2Fh6u+2XeKVKTFE2otELl9HUuVsqLBQVo+xtuZUxH6gCP8tPn6RBFrN6QZ2Q7yWl7zn6mOWVlCwF1IYKVsGHjnB4BVlelei1Lr9/e3nBC7VVpRlDiUdmEWYbcoOy+UqsGzUqLV3PNCCiYSAnujiJyGDN/COLgDawcUxzs0Y3zaeaV23tpMTwWcBKQVMsjEo1oQk0HiD4QI414GVieh6Ij+KbU8uCXWrtTapqFS5szGhftApQNQqhSAdMoGcXK5uVxsJxmAw8bg9raI7yhLvwqmJExZQncaV306xEJa54DzQR5LDSWiyvVbpuCWZSTiWS2ZVievOPURTuiYGDUd+q8rL0nJHK5tD0pL7T2fShZV3hJOZLD6DLRovAzt9ZraMzHOkFFqXzxLSfaHhGlnFdpNxudwURbZQyNTUclD5H7yhV8jB74fpEYHjf2EYm+JS5ZQUKxj+7ViACTqlTlsJ8/WFXSZX5m7ce/9qzTKw6FLDeBNGAbInTkeUX/kOBtoV3RA6qH/ABJSc1BPpEPxeUZnGghnDtdsFOb2hMsAlSiVAlIAoW5wtNi2taHam9qG6E3AB5qgruwgQkLnLquYogk/pdy2odT+QjFhmiYC+S7PctLE9E4rGMa2Cso4Ep52glTFpCrLMSwBK0KBUvRsKW4tfZryhefFNsdVrfvir4H/AEwXB38kZSNtyD6ce4rz687TOWSVJCXDEsUgts8GIny0RQVooWQDI02FdZO0WCWJagrho+nStRBIca2NuVw2USwl5tWWOymaoLU4BqHoSdCA7s8NWX9s7JOaVsTSBupX7OEqSqXhUFLIopxQFyW1GQ61jOxUgdshYNpllElggcllQYTW0tn+Hd1Fc0z1j8tAIT/Mshi3QE+ca3RkBLut5bJTEOBOTzKu7c2wptYMpWFPdoxNkaqzGSizDwhnFukZI0gkf5V2AOavr/s6ZyJakKS2JL4QxDhjww9jIBiYgAeIKDG4McqL0tUuzgSwgtRkuyualZ+rE8oBPPHg2BjR5fcq4aZDZSklM+YFAHCkZENxE6sTSghQZMZKHUaaNu9WoxtI5rsuWlUwvkVYcugr4vFHtaZDe119FIJDdFbetypl5KrsaR02BjaLBVI8QXcElXKjLc2kwHKsS+kVpWtXzLOUykzNFEpyy282PlF3MqMO5obZQ6Qs5Lt0WvupmJnoQ2UDCriIusZluk+/8QI/TM8k/wD2iUh/BfzHz/CVyxhDbv55QcNyClpE2qn02ipK5XSPZJ3PyEXj2tQUOVcUS4qExt07+yYf+aAehSVN5pHlFJj2UrHHWLLv/H70kJhe1oL5JiQoKulxKqVvuyFqmzpRlhSmlsAB+lTsPQx6DoubNGWu4LCxuGZ1wcG2XJhabgmqqokDdRc+UazZGnQFMswj2jUAfVJl3JNKlBKFYE5qKDlQGtEs531hSSSTOMu3KtSi9W8Db6UqZllCS2W9QWPMj5Q1kcW2hmxuvkySKtkWV+/384pko16LrHBGfwhm0ATjSnR3mJzGFIzUBsOuUDLcmp2+iqJAEOEEjCFFILO5ZLpdsQPWJfEwdp3vwRRZ0bqg7NKM3EnAtmJUtVWDEPXLwygLJ4jcRYQDxKq97Y6OYXyCe2JCQgJADZhqN9PvWGMV0eyRoLdByTeAxjo5NbR8mzFWvjHl5OhZi/saDvXrXf6gwcEVyOs8hqtDabkkzpYEwcbMVgNipmoDM8893jXax8bOru9F82xXSErpnTMbTSdFgLZ2InIKqJUB7CnDlsmow6GM2TDPzW1H/wD14jW/fpogreLUUt3XGkcQ97qE+94PFpppQNNVMP8AFz3n0O3L14eayc2YVElRJPOM4mza22tDRTdlUIqrrXze1oEiXKlyygoSAajC4DEg584229KNjjDWt1+SRbhDmLidyl9qn95hWS5IZXUZ/fOKRSunBc/Uq8ILS5p5qg2tSQyVaN9mLOxD425GFF6tpNpfOUSSSXJ1jMkJc7M42UQABNLoUAkOqqipkipoKqVtsI1MA9rWAE7k0PygyjW0UmxEuEliVFQo9UgADMHQ1G2RiZYSbLeJtCbJW6Ms9laUriNRxooajSodoJG2manxQXPtyztrLRlTHVOsUVWbGBgckgO/q1TR38tMon+OXxhzVxkyk5kXb7S1n7tLAYkgsM2BzJ1cDKJxOUMDQUvDFc2c70UtsUsqWAA5r8IVZum5HBrbKMNlV+kwWkLrmc18slm1BcdPsxdyIFE1DxUclxV6fY8T+0XaKCruhSaxUqU8ueQJomSle/LJTyWmqSPvWCNZn7Kz8W8xOZKOB+R3WYVCK1VclAAzLjRqN10iVUkqdnRiUA7PFwquNC163+GF2JFmMwElS1kKfTBQD1J8Y1sJTY7HFWw72F5DiL+y1Vvu0q00MOxTgK2JiJOixPaC4rWpQTJCxLZypKk1OxSVgpIbM7xebE5tGmvJZ7YHt4A+aGPZ2bKR+ccJD0WpK5hJIckoJDNzJrpDGAmc7snUc0CVpbbnEXyCiZALLrolY35+IHmIeMepb5j370SgeRor7NJKFpwlQUOKWsFjXQUo9fFxqYo5rXNJcO4j37rVULzv6q61SEDjDrxD80KAwkqPtDNwS+eRptCz8M3EN6qQaD4aJvTw4/ZP4LpB+FdbeIo2AdPNRRIkKTh7hKZjgoUKg58JCnA0Y6EQFvRscT89lwG4JJrv3TUnSDr7LGi+TWj7WEMUFJIIIIzBoR1EbAIcLCyXvJKKkWgDWBuYSlnsJR8m9UjWFnwJZ0Liif8AjaCGJBBhd0AS5wzwdEFNtEpZYgcny8FaQpLh+SkRPGoS+9uzsieDjBSv/wAwe10U/teNecZ02GDvFMYfpDEYc9nUcvxy8lgb5uCZZVDGUqQXwqGraFOYOXLnCLoiw2dl6XB46PFN7III3B/KUqVWBEp1GWaZQj7+6Q1hX0SDxCGR2rUZhi0hrQK4VC1Qs4hSE7uixYUkqDLJBAOiUkE+L4fCNbBYcsbbhqdvDilJpRwWjuywd5LDM5CmegcYmc6VVGi0Ww1yWfJNkdqstPu21pZC0TqUq5T/ANT4fWMEwYn4aK0mz4c9oOCq/wCGKFZmf6QX8yKCDx4B15pfT8rjiGn4FYgFJcUhlwLdtFQgOFFELnpm0npJ/mTQ+I1hZ0HWIQa+Mf1H11TOxSJKA8tKX3fErxLuIWfhzGdUhO+Z2kh/CuKorSBRWXUXitlekpUpLRClTXMIHSJLyGqoFlUd9yivW2rZU2u+cUssFqEP6GGobrMl5Y2v7LkHarKCSU0+EWdhA8Zm6K4lrQqjiAwkAPrqRoNmEIyROjd2lcEHtWnt03GsjGQwZw/xhX+SzNltZ+Ix7GnKF6V+Hdl7uyGigVTFKIUQdEgENQAgCkehw8eRgvjzWH0niSZ9DsOCbWzFoTGhHSXZi5f+4+qU2hJ3PnDbKTDcQ88UDanJdRc7kuaQeOgKAVxISh5cxKTX2TQ9D8xn4QRzXEabq5DiNFXMnpAKFEYkuUHfcDkRUc+sDccpD+B3/Plsf0iNaXC1dYO0glnElnyU4BzZzXRTAHYsdYXmiY8ZTtw+3p9NERkb26JReF5JSo90+A+ziYqBo4JAzfbRoI2c0Mw1+SZhZTcpQs281Lor2/1EkkjQH9/sUErmHs6Dkr9UOKDVPVkXi4kceKjq2hSl4i5DkCp5DcxxPMqCArZM8BOInhdn0eFv5cF1m1QnRG8ta1fknNkO4PlBXMSEsZ4JnLUya1SB4gDY/LKFHsSwa4uApYK1d9b5ykykk4ErUlLFwkcg/EosOpAjDleZnU0L1uCwjYRlG537yirzuJCmxJ7mYwcpHC+oUj5huhgj8K0i9j8lnR4qWJxadR37+R/Kzdssi5JZTVyILpPQ/vWE3MdGdQtSKVsotqGMyIL7RUzuiyhu9LFlMAdGYlTeLeBjQ6PgDv7Xc9Pyl55COynhA4SN1f1hj6sY1360feqQJOo96LQ9nP7lDZ1+P1EWi+FZ+KJzlX3ootp5CCoMIFrL3hKLwJ4takTgEFQHC3E49dPhAdBoj6nVVW5DNkQQWbqRHSChamM3ouWSfhIO9D45HzhaduZlcVE0eYUju9jKtJZUhIiFuqkg6CKVyXWuTFFmbWKuuqXCru1O77L3iqlgM/kPSLRRh512XPdQTgpYMBQRpZD/ALQl75qoUNW+MMMJG6o5oKsloSaEOIs9jZG5XBAcXN1BWoumerAEHIZHVtHhDCdCQNmMrjm7iNFlTRsLs4WtuW8Ey5RB/U/oP2jZdBmPZ2CzMQxz32FVbL9TpB2Yfmpjw7ikVrvx8oaaxrU/HhOaUWi9FmL5q2CdZh2hBTLSo5mKlzimGxtC4oqIfb4ac/sQvYulfJQvgokn2vAjn+x/faIA/wBqjuRdjCXZSQoKDDE9P5qEcSfgcoo9pOo4KtlQvK7VyFBKyC4CkqS5SoHVJIDx0bw8WPREY8OCqQnEGJZWnPkT8D9i3w68FxHNGWGyFQUnH3cyjYnSCKgpJAJS+7aNrEzNLmdnVXjia46r6T2UnY6CWX/9QCktUBnc5Bg21IynYcA3kI+iNIx1akJ7d6ZkgBM3MknIgD+UOAWHMDPaNXDtJZTjZSzyIjSf2S0pMUkjITcMzHKF13HIs5UqSCFqJJWVEqLklnyarUEIsw7G3pumpo2SgCqr1Qt83Z3jkMFdOE+A9k9KchnBBEB3j5pObDEhee3/AHaZb4qfyqqDzBGfUQHERRtjvMK5FDgDgapZuZJbkNs+ecYj4xuNk6CeKY2G3l0pU1KJowb9JA0jQwmLNiN+2w/CVmivtBH22elBCUuxAUBm1C4Gpy22h2WZrSG80vFG54zHwTzs5bB3SAabE5KYu3IggbPBsM64wUpi4u2SNU0mznofq8MJMMrUJRPSMRJyT6xCaaTVBJZVoSpTYavmTrC3WNLqpOFjg3ddvJORGgZtqv8AOLyAUohKXoD+ULXZTBNIxBJAMZskJzGks5tFZ5M4jWEQ4ha9Lvf7gfCJzlRStTbeUTnVDGE0us8JUzOfgB9YYw2gJVHjgrZkyGmuKpSqKou16ghWyDWHo26apeTXRaK6bYnUwRgyElZk0RGyaS2mF0kEMKguHdUHieDZCVeCzRwor6bYXDu2dGhkJhgaG2Xa8kiVaJbE40sCQXLVGYD5+EUbi4C3NmFJoRSWBlKUWm+EgnCl+Zp4tGfP0w1pqMX3p1mGcfiKldls71RSQAcw2TeMEwPSP8h/VuFHhX0XSxdWLCPRwnJ/PpGi+IuGhpBDr3XCjCWqUn1ByPUfEQNwzCxuuuwpIGEsTSlRpsocvkY6g4WFB11RtmsipyhLKkINeJZCUoUxNVfpU1ObNzo4hgzgeiqCGi0NPsSpa1IUzpJDg8JIPuqLONjF2kEBw4orXhwpG2WziYC5PeDJmryUonOlDTatGG+2Gx8PvVSDZo7oUTVJJGoPXLY5wyGNNFUc4q1M4mCUgOTS7rdhNag5/Q6GKPjzKgcWm07ReKUJxTFBCc3UWp88tNjCUoDRZK08NiL0Sm1dvrKPZEyZ0SEj+sg+kZrsdG06ap7OFlu0fa1dpT3MpBRLKgSl8Slq0oAwroHJpXSEcTiet0aFQniNFxPY6bLTjmoJJB4EkOKUKi+mZwvlVs4JFhCD2tykDjmOdlaapIrRZVPWWW/lP2YpLhXt0yX4JlsgI0PqqDKZTpJfZdD55ebQnle12bXzVw6xR+SdXfPGApZwWdNM3FR4fCNvDSDIlJWHMCNEYm8iFAYxhq4VmAwYZ/PWGOtAO6A6CxtqqLfeLltI58wbopjgKRWhW0ZWKdxCfYFcbaSjDsB6UizMb/Xl40qdQA61JPCBvBowWjXdQ6iuFcSXKAEoUIwU6vjvHLlyOXJ9Zw0tKeTnxr84cj0YAgO3UVrgzL4Kq+QcoahF7KjkVJhtpSz0dLmNVg+9YLolnNvS0VNmLKOCYuWd0ln5EfMQGQOIpjqKGzKH9pod4pfIuifOJxzVEDN1lfkl3MecxmJxETi19nz09U0/GQxfC0egHzTeR2NlD+8UpRPPC3ViX38YWjnMrLB1CQl6Ykuo9vfNIV3HNSW/hph5pxTE9QpNGgseJgPxOo8joVqtx0ThYkHnofREy7s7otOKZLGqVLSZhZqJSkkjLM+saUMwOkYrm46Ae+5Ukmc6wwFx7ga8z+FTaL4Q/CknrwiNuTpiNujRfyVo8M6tSjLFbZq0Ye7IQ5U5NCGqwPR6c94pDM+aYSGOtheqO9xjiLM2hO2m/PuRaZWJLe8kEjmnNQ8Kn/q5RruZkdfA7/Y/b0SBKnKBIo4UkU5p1HUZjk40AiXMynXb7qt0VJMozaAEzBk1SsD3eahpuKaAGpAjN8Pp+lINKUmQoPwqxChBFG1SoEZ+UQaGtiijW14rj7+auNj7z2SMQALlSQ70CCSeJQ0IzyNYpfVH/wAfDbvHdz5bhDbbrQaJcOBDcj0z6uGDhjTPwdvTTJ6wExO24cEOgqbysE60SymWVFKUlRQ/tEEUShIqetA2pZszpOFxZoffvyT+BqzzWKRY8QBQevXYH94xG4RzwMvmnS8DdMrkwWeaidMAXgIIRXPTDWqgah9W6ww3CiBudxs8kMyZtAvXlAKDH5xoEBeOlzB5KQ3v2fStyAyt2z679c+uUcNNtQmoMc5ujlir0ucihdJ0IyP3tmOURJh2zN0NLahxI4JDNlKlGvnGTLE/CndPtc2QKuZa3zgTsTm3VhHWyh3gd4hsg3U5SoTZrxWWUOFKWtpQlzm0pC7HZTasWgq9VqByBeHP5ba2KF1dbqC5SiXoOTmFJHuc4lWD2gUhlQJFUY5cpyJeJQG8SBZUFOl0htopBKpBcw3DQKG5H2OQHdeEDmSD4NrDWSnZkrJKapt2iFSA/AQcqZGuTksI7rW3yQsxrtCk0u2xAuVjJxhIIq0WklI2SOImLdG+qlPOIkpySOtANNxFHSCFmeQqsYLRTtysmu3TUTTMSVIU9G0G2xDRhzubiLLxYK3mwxOiDDRHvVFG+7Wst3iydgkA/wBKYFFDFH8DQEL+FhGC8o8z+UTJuu2Ts+9bUqKsI6vSNGKOSU0FQzYWP4a8gjUdlkobGvENQhx4OzeTxsQdE5tZCqnHg/Cvp3ZeWhdcZBAUkEhsKgCmoDmhzcQeDofDntEk922y7+c86BG3fd8uWsKSgJIyISkkdMTw8/AYcNpjBfvzVW4l16k/L7o6bYwkhYOFJ4kZlQY+VCN9jrBWPzNLHCzseXspcuF0F2ZJQGWkGppXCEqGYYOdiK5EagxzHONsdw87HP8AOiglEWW0qlLTOlMhQOaRVKiDkS9CHplmOtHRNeDG/Xx4j8j9qoeQdN0VbrHMtKF2srSSktMClgLJASApKdiCKUqC2wDE9mHeMPR12oacdCffeiDMQXpStOLQPsAA/OmcNio/D6IznGbUDUcuPf8AlEiShaa4+/qGoArJnJcqX5Pu+YMzonWPg9a/XrXhsOgRrdoNKIczIJKOsM8oUFAsRAZWB4ookUhYbCbzbJZLSUmfZ5api1NjTilLPNSpZBVWlXyjFmwQBJHAJ/8AmtrUKuw3LZJf5kqQhKgrD3i1zJndnQkLxYX0UMiDFW4VrHDjpfj4E/RAlxoqm6I5Siksr2tjwu/vIVVJHOnjDIpwsbe9xv8AVYr/AIrXZk0BhxJIzcMSOYdj1aODSbO6JM+AsoNN+IQ1qs6JgqB977/LRoks48VnxTPiOmyxd+9kySVIJ6GvkflnWjwliMG2V2Zxo/L9LfwfSbSMpHv37Cys655oeg84Qd0XONq9VqtxUZQE6SUllAiEZYXxmnikZrg7UKGHXTeKZDV8Fa19h2rFXVei619FV26mJp3jrUZQq45WUCI5cmFgs4YL51fltDMMYcLQ3uo0iZheGWxFDtVpPNvWGGCjdqpVqJoGQxK0eoHhBi4eaEWk9wTOVIJSlOalmpO/OOMWiTe8Zi7gFq7RMQsplAAoloCXFCTu/wC8AhtpJWKzMwGQ7k2jbpswSVAbDPqfpGJ/qBznMaeAQcRIXNB70cq55a80DwAjy3XHmUqMVI3YqyRdaJQPdoAzLgAqPidYfwMmaQZyT47Krp5ZXDO78KM3E5KUNQgCYrFQpIPsg1ruI93g5WkZWpxjo2m7WVv68lyx3cs4lBSVLASkgULUU7qYimx6Q7icQ5rSW77E8votrCRNkFnY7d6Qzr5nTyE96oqegHAE7kpQAkN0jGgdJ1ltdqe8352neobHZLdFobrmmZMVLoSE4gcnAISXG7qT1fRo9I3F5XZX+SRkaGtDhxNLXWK6fyilQStVVS0kEVZyHU2bCkJYnEEyNLC5o4kVt801hCxgc94a7TQOv5V+kqRZM8RQEqzZSS2bEAKJo/kSNYfdJdFtkjuOvPhx+tJO9UOmSUKII5KG46+oPQwbMJGgjxHv6qjjSkElBox2LZg0qPMEdREWJBr7PvZcCozJLMtDgHKtUnVJPwOo5uBzX5uw/f696I15bq1QWhziNf1A6/SLNOUZfRFe7rO3x4j7+H0TBVl/iT+VLShSUuo4yQrIOSquJ+rudc1Q/wDi/Ebae7b9fTw2muu+EUR3pUUsdDzGR5iHw6xaXKss0zCtJ2IPkYpI22kKETbVgTF4csRajUJcUgcQuNt70qEK2XbjhwGqdHqU80nTplygboAHZhofr4oRBVhtDcIOJOjjJ+R9k9C3WKiO+0RR7kFw4BRTNi+VAcxTMxxFCxCy0dEut1hSvkd9fr0PmIHlLdk9DinN0d79+7WdvG7mooAjfT6GKua2RtOC1YsRxaUknXaU1RUbfecZ0mCLNY9uSeZiQ7RyDMhJy4Fbe6T8oQfhWv8Ah7J5cEbOR3hDT5BSWUG+fSEXxuYacERjw4WFS0DRLUY5SuKEcuRyF4QEjqYMx1UEMi9VLDvGgwAoRKmhEGAHBQSrpCAIvGwA2UJ5JTGTawgOc8h1NIJLI0N1SjoTIaCdXXMzfPWBAWs7EMs0Fruyqca1A6oPoUfvCuLwrZ2FjuISM8f9dHmPoU6XZynMR4TF9HzYZ3aGnNZbtDSgawgJ3A6KKtffw7x6/onG5gBahpINLF9o+ydoM5c2zpE1KyCUYghaVMAWxMFJo+b/AD1m9IOw5cyZpLSbBGo86XpsBj4TE2OQ5SNO4oOw9l7cskCQmWWPFMmJZgHPCkqJoCfCJb0rHRETHHyP1IA+addiIHH4740O5aa4Oz6ZDjF3s6ZRa6SwwrglhWW9akt0hmCKYv8A5E+lbNGtXxNfbQC0g+c4h4DRTRsO9M5yQhQYYFhuFcpKSNXdLP5DONJpLxrqO535RC7Ka2PeENe0gHDMSkBK3NNF0xJ86jqYNh3ltscdR9OCo48Qqxd61IfCxAzVwhSeqmfD8G2ievax9XoeWtH9/XxVqLm+H0UZdlQ2FS3rTCDQ81KYMctdDpEukfeZo9fwFTQaEom7LFKKvzCsSnwzg3GnPCqgqApqs4y1qOeWTL2azbtPA8x6eqNFlzdrbihb6sCJU0iSsrlsClRDUOYNGLVEFw0zpY/7BR4hWkqN/YNjgUuVL1anwhgOrsn/ACocARmbtx7v1y9F1SMf+P8A1/8A7/1dfapfU/8AH6fr6eG0Xm8fr+0KUQ0CqWomLLlwGOVaViZkVLVRzVYmbFS1CLVYJsVLUIsXSuBuaqFqgsAj7MBc1Wa4tOiU2q7waop/KcvAnLx89IoSeKfjxFinJXOsAVRQYjwI5QtNG16bjmc3UHRBTbEpAYgLRscv3T9Yz5GlopwsJlsrXG9igVWKU+cxPJgpvHWFDh4jqHUmRLJ3FJoRTi+jlynLnNnWLA81BCvE8aH0+sMMlIFAqhavu8P2YMJTSqWhSTPOlfhE/wAh96aqDGFKXPqKY1vTYHkIr1gJF9o/IKCyxWwWxsFBXOjxpsBrVY0zNdFsew0z89v+XM/1SYrK2gCs3GCmeY+63E1IMAoHQrLeAd0ttEsDICAnovByG3RhDDBaHxmGIujcLH8DaVxE0qUmcxdVWqBudH5Q0YwBlajxRNBsqa1smSoh6qKhuMQDHwfziobZeB3JxjQzId91KetAWuWtJ7lRxJoxRiDhSBtXLIgCIY1xaHtPaGh764FOFzWuLCOydR3XxH4Su0TFKASVKKU+yCcum3SG2Na05gKJ3Qi8nsk6BXWNOEEd7hxDIY6HQkgU/Z4DM4kimXXgm4YoiwudKAa0FE/oIJSFBTl8QNXr1B3hnsubQ2SuYgrk+zgMR7Jy5bpPT4MdYmN52O4935rngDUbK2Qsg4h7SRxA5KTkX3pQ8mOhMDcB8J2O3cfeylruKYWC65c5eFUzBKWCZaixIWGdBOQLebCF5cQ+IZmi3DQ945+9k1DG2R2VxocPFJr2u/uJqpeJK8OoyIIB8M8odw83Xxh1UqOBikLQQfuEEEgEEjEl6gkh+RIy6weyQRdH3quIa2njVvvQq68pqZx/LlJlqGgJUV9Sc1/F92cMIdhx2nW36fr6eCJK5sh7Io/X9pQoRoApdVmLrlEmJXL4KjqVSFITYgtVC1S72BuCoWLvfwFwVCxcXMeAuCgMQs0j3stDqOh+UAcEzGXcEOSOo3y/2hV4TQKGVZUbCA9W08EQSHmsLGAt5cJjlyiY5cvhHLlfY5GNTeMXY3MaVXGhaMVYlE6IQNTrzbWGeqe7QaBCEgHeUbYMCVAISSTms/KGIQxrgG6nmhSBzm25PbOvONNiQkC1vYJf9o/yLHrLP/bFZ/hWT0hpH5j7r0QiE1jlCT0QVpQxdoRUmDByYYoGVFsyKFxSCfDKOBARs9qMxJLOSWDB6sBpEtobIheTuqu5i+Zda53UdmVw80pTZWJOLUMFfI/LwG8Va7K7L6fdEIJbm8lXLSKpORyOytD00P0iXWO0N/spa6+yfZ97qkoKTsQfXUGCWHt7lSy0omzrSnMflL9oZlKhqOY03BbeAuBd/wAh8x7+aM1w8ii7znBUoSFSkCYkDBMHvDRqe8OdToNAwtLJOtDjR3HL/BTT5Q6Pq8osbFZZSW+ca+hSzHlvhxHv5Kiajy0+94u116FWe3LqNQdj74/5R9rskpUpKkqxT1NRwCTq6QC6tMwVdfaTjlljkIIpg+X6+nhs05kZZYNuKQrEaoKUCpUYuFNKsmLAKaVZXEkLsq53kCcoLVzvoWe9oUdWq1zzCrnk7K4jA3VC5m5gJBKKG8kPMtO0QWBEDFQZx3MVyhEyhZOPLLZUTHLlExy5deOXJpcqPaPMD784bwrL1QJnUFKbUnWpbwMEkJLiOC5uwRNhHGPH4QXDjtqknwpzIjUakZAtX2EV/aU88Q/oUflFZvgWT0gLjPvivTWhFYtKuYmLAqvFUmXF8ysCoKlRbMiAqCpMTmVwomTE5kVpUDKicyva+MuJtXBV6rSohlMUmhASkU5MIB1DAcwGvPVPux8z4+rcezyoIGdIYkfZGh8oZY/MLSbhRpcmIxJf3ksFcxkFeFAfDnHNOR1cDt+EQ9pt8Rv798EMijg+yc/kRzH01MFdrqN1Rrq3VyZeMdyojEKylaVrhf8ASrTY+MDzZf7G7cR74hHGvZPkl9qklTkj8xL4xqWzV1GvnvDEbwyh/tO3d3fj05Lj2tePH8/lASykHjBUnUOx6gwy4Fw7J1RsPK1hqQW08PofL6IW0pANHwnLpBIzY134rpmhr+z8J1HvuU02Nc8EoQorAckAkLAzr+v/AFdfaEZW4YgE9k/+v/z9PDazWOkFga/X9pVNlqABKSAciQQD0OsaDXNOgKplNWQhVqi5IaLKlVKVAH4oDRuquoEwo+VzlyqVMAgVKQ1UrmmOyq4aqFGOpXCqWYo7ZWCqeBIlLNCPKrVXyxHLlAxy5dEcuT66EtLB6n78o08I2mWlMQbVA58vWmogW5RRsirB7Xh9N2hnDjtqkmyayjGk1JSBaXsSv+1SuaiP/im/tETD+srL6QH9R98QvVRGesIL7DHWuLV9gjrUhq53cdasAoqlxOZWGij3UTmVwuGXE2r2omVE5la1BUtosHKwNqC5eJPNPqNfLPxO0cHZXeP1RR2m94+n6QqRhL/HIjIg8iKQU9oUua+jYVdrkMXHskOnpseYyi0b7FHdWe0DUbHb3zCoSnEMBz9w8/09Dpz6mLk5TmHn+fL6Lmm9PRF2ScFLTNKcUyUQVp1mJFMX+Ia7+cCkYQ0sB0dseR/Caif2g8iyN+9VdrDZ5iUzLOliC0wBOAB/Zcb5hxT0i3R/XRuLJT4cfFGxToX0+IePBZRR0OXw5j7rGtXEboMbwBlf8J+R5j78xooy77mSHTLmkB3ZPEOrGggckUMmr26/NHZJLCcrXafL37KX3pfUye2Mmj60Oxw5A6OPi5NYWthvq9B9PNc+Rz/iSxSt4kknUqlKpU3aIpWAVSlmJpXAUCYhSq1GOVlWoxQqwCqWYoVcBUlUCV6WeEeVWmuqyjlyrjly+jly0CaS2/lb0b5xrM7MXklHi3eaGxfdRsYXBRkTYhU/TeGsP8SHJsmUpUaLUnIFoexq/wC1yf8A3PjLmD5xMn/TKzceP6j4fcL2BIjMWEFJohWXWjlal1oi1alxolQvgiOtWDTuo4Ym1YBcaOXKBTFrVgqsi40ix1FIjCQbCHtUpjTIhx028C48IvG6xqiPZlOmx2VUni/LPvHh5LyHgcj4HSLP7PbHn4fpXj7XYPHbx/eyWThDbUEilyfasKe+BwqQRjO+gXzOhGuepirWC+qOx2/H4RmuJ1G6Q3j2oRjxSEGo40qogv7SQAXKT4EaZAwdkJy5XnwI37j4pkN1tZyfbVKzPgKCGcxUtYAhjMaKq4CrVOjqVg1QK4lTSjiiFalHFELlAqjlKgpUVVgFWpcVKlUrXA3IgCpKoDaJS//Z","data:image/jpeg;base64,/9j/4AAQSkZJRgABAQAAAQABAAD/2wCEAAkGBxQTEhUUEhQVFhQXFxcYFhcYGBgUGBgYGBcXGBgXFxcaHCggGBwlHRUYITEhJSkrLi4uFx8zODMsNygtLisBCgoKDg0OGxAQGywkICYsLC0sLCwsLCwsLCwsLCwsLCwsLCwsLCwsLCwsLCwsLCwsLCwsLCwsLCwsLCwsLCwsLP/AABEIALcBEwMBEQACEQEDEQH/xAAcAAACAwEBAQEAAAAAAAAAAAAEBQIDBgEHAAj/xABFEAABAgMGAwUGBAMGBAcAAAABAhEAAyEEBRIxQVEiYXEGE4GRoTJCscHh8AcjUtEUYqIkM3KCsvEVY5LCFlNkc6PS4v/EABsBAAIDAQEBAAAAAAAAAAAAAAMEAQIFAAYH/8QAOBEAAQQABAIIBgIBAwUBAAAAAQACAxEEEiExQVEFEyJhcYGR8DKhscHR4RQj8QZCcjNSYqLiFf/aAAwDAQACEQMRAD8A8mlJLxrNkN2glqfWixTZADmih16gxtYfFO6vNeiVfC1ztktnoGcRM1rqcuYSNFV3cL9WFe1IIiMq61FSIXljN2rArqURDGWoJRslFI1Ym0EBx1RcmSTlDLGEoTngKUyRQxWaO2kLmyao+6rU2FC+NAfClROFJUzqA3oPKFGkRkurX56IONL3R0CRx0Qt4zyS3dBI5Bng4nDtgogYA347QpvGac5kzxWo/OBg0KApMmNpdZ1Wk7GXOu1LJd8IclRJ1YDnC0mJEJBdqmBhzI0tbovSLjuopUEEa58t4XxWIDm5gvHz4N7saIXc077RXenuSwAKfNoRwkzut1O63cdgoxCMgotXmShU/wCKPRuNsPgs7DGnjxC39nKChgTuoa6kPyokdI+eSBzXbL3DnDKjpUtg4OxY1Y1p50g2GFlecx2bNYOmmnehr07QyLGAJqjjUPYSCo8i2g6w7JMxtWUtG8QAiu0dwj7jvSVaEd5KU41DMUnYg5PEiQPGiYwzmu1HD5f5Sj8TLIpdhmFAdUsiZhbEdQqnJLmOAB+JMSHJI1w4HXzBHyX59s1kBmDEHBOe0S9lBMTSkMPNa3s7ZO7CxTQxMDqBBXmukJTIWlE2sQ2FWBMbrWyU0oWfwrCUwtxXoMPNTAKTqzEVUNTwj6Qm+xojdcKLgfBMFoILA1OcCYRxSOLzj4TqURIQTRWkEsDZYrw6TR52U8DOTUCDh9NSBjGc3rS/Pvam912u0LnF8DlMsfpQKADrmeZi2V2XMvc4LDNw8QjG+58feiS4oqm0TYLYqVMRNSeJCgsdUl29GjihyxNkYWHYil+ll6E1T+8CzB2268c6N0dF2oCiqWl/ZV4A/vFLdzXPiiJvIfRfnu4UpmzEArCTiFCM2IyOVY9Bh+pljPap1HQr10rntqheoTfthfaULVJCSoguoksEk1ATvQgwOHpHqoery2iGKzvxSexlS5ZVgVhSQCpiUudMW8OYXGNlGQiihPiLe0pgQ0hqQESoUgItQK61YhI2izWtCqSr0kQw0oRCb3FencrExKUKYEB6isEcGyMyk+iTxOH61uUmlVNnlRJOp0yixdwV2MDQByUAIGRasaO6jOKjFKI2XMDWpTPnBMwILuddKvCb52MmEbuKcYwuZmC9Y/CEACaKOQPnkfGFeko6a0pjCSWXBejypTLSW3bSMtzuyQsuSO8UH14K2+g8pQZ6RTD6SArRnGZhFLx+Yaq6x6rgV5aI1It/d09OBJzBFDrhIPwJEeBxDT1hC9qZG5LTVDA5P+o61esGww0Xn8Q4CTa+fPVea9uRgnWjE5WtKFpUoMlKGCeE5EgjLOOkj/tN7K8OHbJF1jt7N997fhJ/w57Upsc2aq0rWpExAwoo+NJxDMsBhJYkh8oI1uU2ETKIjbWXzr5L2C9QmbKUhyy0qD/4qU8zB7pJYqRrmW3fceoXhHae4TY5j4/ylLSmX700uapbLhD8ROgpWLB2dwHei4PHDFDJl7QBvgNOPmeCf3WQU4UmkNTR5dgsbEsLXZn6Ku9JBQK5HIxVjrU4Z4cdFK7Z1G108c4XlGtp+Oci2+ie2Igiugb6wm+7RGvaWkngmoUThL1MCbxFIOIkJyuvUomWsgtF6BFrKfK9shbzQF/3iZFnnzNUy1qGnFhOEebQUAUqYW34lsTuJC8AchLbADJtIZcTkrgvoA3tDqTAVZVvQxVSv01ZAVS0saBKdeQgFhtWvFZHS5sh0vZXi2DX79Ip1fJMNxjQNRqvzJd03DNlq2Wk+sNt3XrStH2tugJtBmBsMwOzNxakb7+MHMRDWu5riU+sVslIuVclkiYqckULqLKSsFQOScKDUNXxgmDaf5IcNgD9FEhHVkLKgxtgpRUz5IJerv7T5bN6Rk4gnrjqjj4RSKknh4iHGe1M41YZCWW7zS7hroqFXrLG55gfvAj0lCDWpUiByHtVvSvCA4DuXp08IXxOOZIGhnPVFjhLSSUbds9lhLAOkmlNaP6w1gZu3k5i0CdnZzJzLjWCRKAlWolcxWIsgmjsMKWem5hIT9txv4TSZ6oZQOYT5CAY0wLWa55BpZe1Xe61qViBUolCm4CH0O2nKPJ4todO8g2b5raY9zY2GtKXpPYC0lEwc/H/AHjfxkeeBZbcR1UunFesSp4cGPNOYVBxDRJZCGv21/lmnq3jBMLF206Zswul5ZNVnG+TT3DwXnAakK1HZ61nAhtvhT1YR5HGx/2O8VvtxJ6kV7paqyzBQ1difoYBFYCz2yDPm46n9Lz38WO5KZZ79KJzKCJZCllYzAYezUUUaVMMHV1DdMYCV5JyC2n5a+9F5mgUEssZntO4YAj2Tz15CDsjyvLL1TjtHl4228+a9h7NX/30oJWeJCQFDmBRQ5GKTjI0aaryWJc+KTK82w6g8q4LFdvp/eWySjPupa1nZ1kBPjQwXo9lyB3vktjohjmwvc7iQPHc/dV3FaePxb+podn1CD0jHbE+vxDyFZUAUOoLH0JhFujli4J1TD0SeylmgLnWU+8kG02lzqBoFWuqpLLpojLKuLLNeTumsi0VcxRzFRsxDrKzX4oW1rBMD1WpCf6gT6AxwFaLZ6EAmxodyBK8hWo4Ekg1FObHD8oNnttL2oqzSomriiuoJiq5fpOSpkoKDmBryELNdY1XiXs6tw6s1asMpW4jusCk4WS91+drbdcyTMEuahSFgOUmh3BGhHOopB43h4tq91JG5hor0G0XrYJEmzLmy5dqUU/nyy5XiZOFSJpJVLDAgocpNKAuY2J2xBpzGtNCOfEEclnQPlLyCNL+SR9oL8l2qcVyLMiXJ7uWEpAAVLEtOGiv06MKZHR4UwrnNcD71TMpFapO8axeBqlwFSbUMQqMJGefgRpGdLiGveKCLkpqEvC0EqUBQEgnQuwofKAyzuILBsd+9WjZoCUDCqKvolcj7nmgTUv0/aNDo2QNnGbwQMQ22GlsrDhxpx+y9Y9UByWNLmynLus/abJjm2nuqpAKtRQMT5RiS4YvllLTwT8cuSKPPvsn5nFFikzAQVL4TkW2p0jQGJc3Dg8aCQ6sPxLmnYJNabUthLUr8oezskn2iNgTVowHHNYoV8z4laGcuArhdDxWp7PiZKMpZI7tZASygSCQSPh6xo4aY2IydCsLFuD8wHxDVaW9fxOk2aYJWBcxSWxlJACeTk1MKYhzI3lp3VsJgJ52iSwBw703t1/S7RZkzZSnSscOhfIuNCKiHMHFbgRsmJLiYWndZcF0+J+UHld/cfBZD9JfIKCu1MuxJHeBSirJKWxMMzUhhGFjgC5aGDhlmLg3bmUp7Q/irNmSu7sqFSCTxzCQpRGgTTh5nyhEMA1Wnh+jAxxMhvuH3WCm2ta1Ypi1LVSqlFRplUl4stJsbWimivBXTLcpUzHmpRBbfRvlFwTnzcUPqgG5StX/ABa5C0Ll4knCHBrmSCG26xpviDmkFYpgZiGOY6iLQ0u9j30yYrUIDqJejk+q/SJh7GbTkE11AbC1jffukf2Wn45mL+f7+PpEOOZhKS6UZlhruWl7RzsNnbUqAHm/yhAmisDAMue+QSmTakYsGNOMZpcOOo0gAtPvgkyZ8prmmkkxKRejZKo5LPCOlTI5ALVk/wAUxisiD+mak9XSofP0ipXoP9OODcQ4Vu37heb2q3BSEJCWCe81zxl8uRjgvWsiLXOde9fJBLjkddQY5QV6z+HnaRU4CzzQMSAAF4iCwoxDZ5V1haS27LBxfR8YcXjj8lsl2ggsT6iJDQRdLFe+RriLWI/EiQJk6XhDKCCCpqMGy5HF95whgpTECV9Zlwon7PHmvO7fZ+7P5jGlGLp6vr0jYbM2UZliT4d8DsrvlsUHNWtxixJcOl3TTQjlSOz3shEc0wOEodRrhps7amNF5Do7O6X1DtEvlBQBWAw3+Q+kJtjeG9YBpzR7F0oLBNTrAjqpUEpjlytTKiwFqCUQixgDETQNlnmBTzgsbBm1PohGTWqWnlzCEghydHzJyDx7CMuawE7rMcAXVwWiu1MiWkJWiX3xBTMKHJNWPEOWkVojU0FmymV7iWk5dxf4SQXOqZJZLykpWrCFag5ZZUhYwGWKm9mtu9P/AMgMdZ7RrVI5D8aVVDt8qRgyxuY4tKakrRzVNKlyimoYKSoHXPWBh7g4dypTZQT3UoX/AGNPerUlQOLjbXjdRfoXHlDWMhDnGRpu9a46o+CkLoWgjbT0Wh7C2lSrOuWSAEL4XepU5UPCh/zQ10ZicrC0t0HFZXS9Mma7mPotAElAwqzJccxuIJJIHy2OSxnnO/M1YTtTZFmepRHCQMPQCvq8ZGKaTISvWdE0+Cm7jf34JXY5IWlslDk7j5Qu3XRaIbYUv4QMXz0rl4RLm0h3oq7LZVFaXBbEHLFtyx3bSOjFuB4Ib3tymitjYRLmowLcrJdJFDw5AHJmGWUEeZDKCxefnMsL8zKy8fPdL5dxTlqIICNakH0D7xoO1TLsfCxtg34I26bOuzMXCgFDEEjF9Rl8IoayUgYqWPFDLtY0srRdrJoNnK0mgIWPH/eMmR465re4rG6LYRiAx3gvKhbZgyWoVJLEhyS5JIqYKZHZcl6L3RjYdCFOy3pOll0TFjk7g9QaQKlSXCwyCntBWms3bWcEj8tCiBU8XmwygjGgrHf0FAXE5iPRFXT27OJpyXSpXtAtgB0ZqgV5xcNY4aHVCxXQLSwdUdQOW6J/EG0YjKlaMpZ+A+B846NmbRC6AjDA+Q8wPfyXns1DGBOFL1ANqsmKqURZGHEdMosAOKq8WKWmuC9VCZLwgBQVQgMTiIxAnUGhrqAcxESMbktZk8FBxs7f4XqgClVxZ8/rC+YDRYAgfJ2rQF+WBVsTJWmYiWQhWJbFQIUEltADwvUxiNcGEtItfXGktIcD7Kx5n2Cy4sCU2q0BJWmZOUBKDVKUpyx7AOX1jRDZn1fZbyG6y5JIg4kdo767eSzd8XzNtqkpUEsgHAlKcLO9HJJbqY0cPhtcrASSs+ad0mruC+kWIIBxHETp7o/eN/DYERC3693D9pB8l7Ie8CV9PhzEVxrS5tBWjIBS+Wh/CkYiZV8mTo4HWOVXOpFWKylSmw03ennDOHiL3IEsmUXauvpAlJCQ2JwTrQH92hjEsEIFbqkBMhtNrqmpWZasQCcaSonZKnPwj0OHl66IPCQxDXMDhWtH5rdKAmHGnCUe6cNX14nyy8okdnQ7rBYTH2HXfisrZLeqcuYhKgUS1ABQqFGrtyG+sWwUweXNGzdL5/4WrM0QMa4jUjZZW3zyidMCcgtQr1jzmNdlneBzWtEwSRNLuSrkTlTFYS1UqYdK/KEw+t9lLmNjbYTm5bt7ycSpiVFKUijlhUgagGnnGpgImuJe7y+6p1vVsATuw3abOJoNAJiiBpklvjGnDA1jTW12PBJYwCQg8Ueu0AgBwSC6a1YircqCEpGhs+nJY74XMedNCs9fhxulJqkkg5UIGJL7ZHwgOLwpdHm4heg6Ia6I2TVivwk1zLeeMFUvxs5AG7/ecY0eYnRbEuIbAc9X3c0wvCzFR4AGWDUsAlixIbOHm4N8lV/hLDEEtLpGgA7JlYrEmZINndmqmYzkL3+TbUhibCBjKavP4iZ8M4n9R3LM9/NkTSlZwqQ4cVFdeYILxnMcWnVbBbFiIg5osFEC+5mIEKSojnF/5Dz2aQjgIstUmFlt6ZjmaZSFfr70pLc0iqo5zzxr1SUmGMdCMOI5Zb+Z2V3aK8yZZkAUwIOJ/aBJejbj1hOPD5ps7jrSp0dhB1gnJ1s6cli1y4Id16NRKIhcj7oLKeGMNYfaXmFikVeVm1bP3svODzs1uvNRC7SlC3XuVkFZKlBAQDlQfOF2StYeapFhRGCGaAm/VKFrc5QAuspsCl8gAmsRuuKuTlFtlyd9kJRXaZYGhKj0SH+LDxiXmmJLGn+py9NFphYgLzgzAaLx6dec1ctEozZikgFkFRKRsANafGLNY0OLqHivbOkcWhtkrki7FnMhNagu4G8Hw7DO6m7DjwUSxmJtu0PLimslAQMKc9TqdnMbcQbEMrUi4l26gpUHEioQrLNIxKDa/bRLiCEu+TKDa5aLnUJmVFVpWooqMifCu6zsjdXixgLN9vpwU7JYeJilw8BjhJdVKZMR2dCrLxtNcCe6QhA4iEsS38zEnLfyhuSQh2RtABRAzTMbJPokl53vMnHiICB7KEhKQAMnwgOeZhObEyS6E6cAnY4Gx7bpxci3lJ5OPIx6box2bDN7ln4oVIUwvu2z5stMlKlBGFglCfabPGoV2pFcdHejXEE+9TwCXwcULHGUjW9ydvBT7JWVUuUorBRiUSyuEsABrHdEgRQHPoSULpR3WSAM1ocEuvG7CqdNIVKwqU4JmJ1zoHObxn4vCSSTOLBoTum4JssTAQbA5KMvs2HL2iUE4qFlmmlMIAPjAZOjXgnUAcET+eRX9bifJFdm7MhFqx96lMuWVFMxRCMRYgYXOdXpoIpg2iOXM7UCx4+Crj5JH4fK1ps1oOCfdqu0KCkJxJUcyUEFzk5I1pGjLjIY29k33JXBwyOZ2wfNY25Zx78qSPdVi5D93aM7BF0uJzjvJ8FpYiNrog13MLeXRd2JImYXIqeadfiPIw1PMcxHBa+GiYGg8UJfCQlwBhFaQBoG6nERtPBXzLvxJAQG4eHSnM67+caOHFN1WbjXNG2wXJKUEMgjEkMCPGhHlBpgC1ecxBLhZCy/bFDrlrVQlCkkf4HPmCryIjAnjb1nqn+ijTHNbsCD6rKwitpESDEoT0zutJmrwqUSkAu5JYVokVJNKAfUGgaHOr5KrWsa4E6JxaezKO7C5a+8NeFIrR3fbI+Rht2FZlsHVP8AV8Qs1OlEFiG8QfhCBBB1QXAjdNbXdapUpK1YQCpqaD3XrrX08L5jE6ikW4yOaUxM4ceaXTJpwkOW2ekFMocEYNopWYUR1yIXL545crkmkWGqhbHsJZqTJutED0Ur/t8o55rRZXSRsBg8Vqk2xqU9IGQskFwC8kkSiVAAFyafMxdrcxpesutU9mznOb5fWNFrWxMyM2VJZXzPzv3QpmvTdyem0TmrzQ6XSYM1yoU4uayY1hJ5E7gZjplBesFLLxUuVpcFqEXeJsvCXGJ2UmikndJ3grAHt5LJE7opA4f5S+VcKrNImmcoKSkYkqSSCoAEsoEUq2pzOwiGQNijJedk+cW3EStEYonTVZy9FIWlHcpJSSorTiUXbCzuX3ygE/VuYBCLB3C1IM7SesO1UrrPZAwAsiEOAcS3W/QkkPyLQzhcI1wrqfM7KvacSesJ8NESmTOBCUMl9kpljo6UxpOhdG0BjfTSkKmHV2p8b+6iqUsljMUo7YlF+WcSYiBZV2lv/aFEWInQkGoLZjU+ER1VK1m9EYi6iKLdJZw9KHI9OcDzUezqm2QteLtfT7nUokd+EBvY4vFwEsfOAz4SWchwOnclpZGxHQWn9gskjAlBSCEpwhw5Y5+eu8M/xAxoaBoEu3GtZq4Iif2UskxDBCUq3FIzZsE0/C2lkzdKTNlzNNDlusrd13yhbFWWSlWJ2UXcEpFWrQBy/wDsIVgmjw+ZjR2vey9FgGuxAY+d1A68BXqtVIWLKtaEKK6B9hTJL0VQio2A3i3WNcacErP0iI5h1RtvNZXtJaVKUWIq9aaav9NDFSK0C1hP1jQVprPbEmSmYX4kg6apFIdhOiQxzi40s4q2gTwQqi3SQc6ildatBXyAEJIRWwjkudqwJlk7z3paw/jwHzceUYmNbkdolujLixZj4EH5arCQivTIuxy1KUEpDqJYdYsxjnuDW7lCkoCynFru4pMuUgs7qmLFFUbXPWgjak6PDSyJm+7j7+SWa8avd5BPbPKTiC5h4VOCD3YAJYukmooHqN+cdiIzDJqezwtamFe2RuYnxSe0y5S1ky3MtJqTVzmz+8YDhcOyWQu/2j3SDi5GgUxfWm/JklCAAk4lLcKDhnBZv83pFOkqtpre/ksZmAjleS69hsll72vvAn8pEss6sNHfJxpk+ucZzoy2rT2Fh6u+2XeKVKTFE2otELl9HUuVsqLBQVo+xtuZUxH6gCP8tPn6RBFrN6QZ2Q7yWl7zn6mOWVlCwF1IYKVsGHjnB4BVlelei1Lr9/e3nBC7VVpRlDiUdmEWYbcoOy+UqsGzUqLV3PNCCiYSAnujiJyGDN/COLgDawcUxzs0Y3zaeaV23tpMTwWcBKQVMsjEo1oQk0HiD4QI414GVieh6Ij+KbU8uCXWrtTapqFS5szGhftApQNQqhSAdMoGcXK5uVxsJxmAw8bg9raI7yhLvwqmJExZQncaV306xEJa54DzQR5LDSWiyvVbpuCWZSTiWS2ZVievOPURTuiYGDUd+q8rL0nJHK5tD0pL7T2fShZV3hJOZLD6DLRovAzt9ZraMzHOkFFqXzxLSfaHhGlnFdpNxudwURbZQyNTUclD5H7yhV8jB74fpEYHjf2EYm+JS5ZQUKxj+7ViACTqlTlsJ8/WFXSZX5m7ce/9qzTKw6FLDeBNGAbInTkeUX/kOBtoV3RA6qH/ABJSc1BPpEPxeUZnGghnDtdsFOb2hMsAlSiVAlIAoW5wtNi2taHam9qG6E3AB5qgruwgQkLnLquYogk/pdy2odT+QjFhmiYC+S7PctLE9E4rGMa2Cso4Ep52glTFpCrLMSwBK0KBUvRsKW4tfZryhefFNsdVrfvir4H/AEwXB38kZSNtyD6ce4rz687TOWSVJCXDEsUgts8GIny0RQVooWQDI02FdZO0WCWJagrho+nStRBIca2NuVw2USwl5tWWOymaoLU4BqHoSdCA7s8NWX9s7JOaVsTSBupX7OEqSqXhUFLIopxQFyW1GQ61jOxUgdshYNpllElggcllQYTW0tn+Hd1Fc0z1j8tAIT/Mshi3QE+ca3RkBLut5bJTEOBOTzKu7c2wptYMpWFPdoxNkaqzGSizDwhnFukZI0gkf5V2AOavr/s6ZyJakKS2JL4QxDhjww9jIBiYgAeIKDG4McqL0tUuzgSwgtRkuyualZ+rE8oBPPHg2BjR5fcq4aZDZSklM+YFAHCkZENxE6sTSghQZMZKHUaaNu9WoxtI5rsuWlUwvkVYcugr4vFHtaZDe119FIJDdFbetypl5KrsaR02BjaLBVI8QXcElXKjLc2kwHKsS+kVpWtXzLOUykzNFEpyy282PlF3MqMO5obZQ6Qs5Lt0WvupmJnoQ2UDCriIusZluk+/8QI/TM8k/wD2iUh/BfzHz/CVyxhDbv55QcNyClpE2qn02ipK5XSPZJ3PyEXj2tQUOVcUS4qExt07+yYf+aAehSVN5pHlFJj2UrHHWLLv/H70kJhe1oL5JiQoKulxKqVvuyFqmzpRlhSmlsAB+lTsPQx6DoubNGWu4LCxuGZ1wcG2XJhabgmqqokDdRc+UazZGnQFMswj2jUAfVJl3JNKlBKFYE5qKDlQGtEs531hSSSTOMu3KtSi9W8Db6UqZllCS2W9QWPMj5Q1kcW2hmxuvkySKtkWV+/384pko16LrHBGfwhm0ATjSnR3mJzGFIzUBsOuUDLcmp2+iqJAEOEEjCFFILO5ZLpdsQPWJfEwdp3vwRRZ0bqg7NKM3EnAtmJUtVWDEPXLwygLJ4jcRYQDxKq97Y6OYXyCe2JCQgJADZhqN9PvWGMV0eyRoLdByTeAxjo5NbR8mzFWvjHl5OhZi/saDvXrXf6gwcEVyOs8hqtDabkkzpYEwcbMVgNipmoDM8893jXax8bOru9F82xXSErpnTMbTSdFgLZ2InIKqJUB7CnDlsmow6GM2TDPzW1H/wD14jW/fpogreLUUt3XGkcQ97qE+94PFpppQNNVMP8AFz3n0O3L14eayc2YVElRJPOM4mza22tDRTdlUIqrrXze1oEiXKlyygoSAajC4DEg584229KNjjDWt1+SRbhDmLidyl9qn95hWS5IZXUZ/fOKRSunBc/Uq8ILS5p5qg2tSQyVaN9mLOxD425GFF6tpNpfOUSSSXJ1jMkJc7M42UQABNLoUAkOqqipkipoKqVtsI1MA9rWAE7k0PygyjW0UmxEuEliVFQo9UgADMHQ1G2RiZYSbLeJtCbJW6Ms9laUriNRxooajSodoJG2manxQXPtyztrLRlTHVOsUVWbGBgckgO/q1TR38tMon+OXxhzVxkyk5kXb7S1n7tLAYkgsM2BzJ1cDKJxOUMDQUvDFc2c70UtsUsqWAA5r8IVZum5HBrbKMNlV+kwWkLrmc18slm1BcdPsxdyIFE1DxUclxV6fY8T+0XaKCruhSaxUqU8ueQJomSle/LJTyWmqSPvWCNZn7Kz8W8xOZKOB+R3WYVCK1VclAAzLjRqN10iVUkqdnRiUA7PFwquNC163+GF2JFmMwElS1kKfTBQD1J8Y1sJTY7HFWw72F5DiL+y1Vvu0q00MOxTgK2JiJOixPaC4rWpQTJCxLZypKk1OxSVgpIbM7xebE5tGmvJZ7YHt4A+aGPZ2bKR+ccJD0WpK5hJIckoJDNzJrpDGAmc7snUc0CVpbbnEXyCiZALLrolY35+IHmIeMepb5j370SgeRor7NJKFpwlQUOKWsFjXQUo9fFxqYo5rXNJcO4j37rVULzv6q61SEDjDrxD80KAwkqPtDNwS+eRptCz8M3EN6qQaD4aJvTw4/ZP4LpB+FdbeIo2AdPNRRIkKTh7hKZjgoUKg58JCnA0Y6EQFvRscT89lwG4JJrv3TUnSDr7LGi+TWj7WEMUFJIIIIzBoR1EbAIcLCyXvJKKkWgDWBuYSlnsJR8m9UjWFnwJZ0Liif8AjaCGJBBhd0AS5wzwdEFNtEpZYgcny8FaQpLh+SkRPGoS+9uzsieDjBSv/wAwe10U/teNecZ02GDvFMYfpDEYc9nUcvxy8lgb5uCZZVDGUqQXwqGraFOYOXLnCLoiw2dl6XB46PFN7III3B/KUqVWBEp1GWaZQj7+6Q1hX0SDxCGR2rUZhi0hrQK4VC1Qs4hSE7uixYUkqDLJBAOiUkE+L4fCNbBYcsbbhqdvDilJpRwWjuywd5LDM5CmegcYmc6VVGi0Ww1yWfJNkdqstPu21pZC0TqUq5T/ANT4fWMEwYn4aK0mz4c9oOCq/wCGKFZmf6QX8yKCDx4B15pfT8rjiGn4FYgFJcUhlwLdtFQgOFFELnpm0npJ/mTQ+I1hZ0HWIQa+Mf1H11TOxSJKA8tKX3fErxLuIWfhzGdUhO+Z2kh/CuKorSBRWXUXitlekpUpLRClTXMIHSJLyGqoFlUd9yivW2rZU2u+cUssFqEP6GGobrMl5Y2v7LkHarKCSU0+EWdhA8Zm6K4lrQqjiAwkAPrqRoNmEIyROjd2lcEHtWnt03GsjGQwZw/xhX+SzNltZ+Ix7GnKF6V+Hdl7uyGigVTFKIUQdEgENQAgCkehw8eRgvjzWH0niSZ9DsOCbWzFoTGhHSXZi5f+4+qU2hJ3PnDbKTDcQ88UDanJdRc7kuaQeOgKAVxISh5cxKTX2TQ9D8xn4QRzXEabq5DiNFXMnpAKFEYkuUHfcDkRUc+sDccpD+B3/Plsf0iNaXC1dYO0glnElnyU4BzZzXRTAHYsdYXmiY8ZTtw+3p9NERkb26JReF5JSo90+A+ziYqBo4JAzfbRoI2c0Mw1+SZhZTcpQs281Lor2/1EkkjQH9/sUErmHs6Dkr9UOKDVPVkXi4kceKjq2hSl4i5DkCp5DcxxPMqCArZM8BOInhdn0eFv5cF1m1QnRG8ta1fknNkO4PlBXMSEsZ4JnLUya1SB4gDY/LKFHsSwa4uApYK1d9b5ykykk4ErUlLFwkcg/EosOpAjDleZnU0L1uCwjYRlG537yirzuJCmxJ7mYwcpHC+oUj5huhgj8K0i9j8lnR4qWJxadR37+R/Kzdssi5JZTVyILpPQ/vWE3MdGdQtSKVsotqGMyIL7RUzuiyhu9LFlMAdGYlTeLeBjQ6PgDv7Xc9Pyl55COynhA4SN1f1hj6sY1360feqQJOo96LQ9nP7lDZ1+P1EWi+FZ+KJzlX3ootp5CCoMIFrL3hKLwJ4takTgEFQHC3E49dPhAdBoj6nVVW5DNkQQWbqRHSChamM3ouWSfhIO9D45HzhaduZlcVE0eYUju9jKtJZUhIiFuqkg6CKVyXWuTFFmbWKuuqXCru1O77L3iqlgM/kPSLRRh512XPdQTgpYMBQRpZD/ALQl75qoUNW+MMMJG6o5oKsloSaEOIs9jZG5XBAcXN1BWoumerAEHIZHVtHhDCdCQNmMrjm7iNFlTRsLs4WtuW8Ey5RB/U/oP2jZdBmPZ2CzMQxz32FVbL9TpB2Yfmpjw7ikVrvx8oaaxrU/HhOaUWi9FmL5q2CdZh2hBTLSo5mKlzimGxtC4oqIfb4ac/sQvYulfJQvgokn2vAjn+x/faIA/wBqjuRdjCXZSQoKDDE9P5qEcSfgcoo9pOo4KtlQvK7VyFBKyC4CkqS5SoHVJIDx0bw8WPREY8OCqQnEGJZWnPkT8D9i3w68FxHNGWGyFQUnH3cyjYnSCKgpJAJS+7aNrEzNLmdnVXjia46r6T2UnY6CWX/9QCktUBnc5Bg21IynYcA3kI+iNIx1akJ7d6ZkgBM3MknIgD+UOAWHMDPaNXDtJZTjZSzyIjSf2S0pMUkjITcMzHKF13HIs5UqSCFqJJWVEqLklnyarUEIsw7G3pumpo2SgCqr1Qt83Z3jkMFdOE+A9k9KchnBBEB3j5pObDEhee3/AHaZb4qfyqqDzBGfUQHERRtjvMK5FDgDgapZuZJbkNs+ecYj4xuNk6CeKY2G3l0pU1KJowb9JA0jQwmLNiN+2w/CVmivtBH22elBCUuxAUBm1C4Gpy22h2WZrSG80vFG54zHwTzs5bB3SAabE5KYu3IggbPBsM64wUpi4u2SNU0mznofq8MJMMrUJRPSMRJyT6xCaaTVBJZVoSpTYavmTrC3WNLqpOFjg3ddvJORGgZtqv8AOLyAUohKXoD+ULXZTBNIxBJAMZskJzGks5tFZ5M4jWEQ4ha9Lvf7gfCJzlRStTbeUTnVDGE0us8JUzOfgB9YYw2gJVHjgrZkyGmuKpSqKou16ghWyDWHo26apeTXRaK6bYnUwRgyElZk0RGyaS2mF0kEMKguHdUHieDZCVeCzRwor6bYXDu2dGhkJhgaG2Xa8kiVaJbE40sCQXLVGYD5+EUbi4C3NmFJoRSWBlKUWm+EgnCl+Zp4tGfP0w1pqMX3p1mGcfiKldls71RSQAcw2TeMEwPSP8h/VuFHhX0XSxdWLCPRwnJ/PpGi+IuGhpBDr3XCjCWqUn1ByPUfEQNwzCxuuuwpIGEsTSlRpsocvkY6g4WFB11RtmsipyhLKkINeJZCUoUxNVfpU1ObNzo4hgzgeiqCGi0NPsSpa1IUzpJDg8JIPuqLONjF2kEBw4orXhwpG2WziYC5PeDJmryUonOlDTatGG+2Gx8PvVSDZo7oUTVJJGoPXLY5wyGNNFUc4q1M4mCUgOTS7rdhNag5/Q6GKPjzKgcWm07ReKUJxTFBCc3UWp88tNjCUoDRZK08NiL0Sm1dvrKPZEyZ0SEj+sg+kZrsdG06ap7OFlu0fa1dpT3MpBRLKgSl8Slq0oAwroHJpXSEcTiet0aFQniNFxPY6bLTjmoJJB4EkOKUKi+mZwvlVs4JFhCD2tykDjmOdlaapIrRZVPWWW/lP2YpLhXt0yX4JlsgI0PqqDKZTpJfZdD55ebQnle12bXzVw6xR+SdXfPGApZwWdNM3FR4fCNvDSDIlJWHMCNEYm8iFAYxhq4VmAwYZ/PWGOtAO6A6CxtqqLfeLltI58wbopjgKRWhW0ZWKdxCfYFcbaSjDsB6UizMb/Xl40qdQA61JPCBvBowWjXdQ6iuFcSXKAEoUIwU6vjvHLlyOXJ9Zw0tKeTnxr84cj0YAgO3UVrgzL4Kq+QcoahF7KjkVJhtpSz0dLmNVg+9YLolnNvS0VNmLKOCYuWd0ln5EfMQGQOIpjqKGzKH9pod4pfIuifOJxzVEDN1lfkl3MecxmJxETi19nz09U0/GQxfC0egHzTeR2NlD+8UpRPPC3ViX38YWjnMrLB1CQl6Ykuo9vfNIV3HNSW/hph5pxTE9QpNGgseJgPxOo8joVqtx0ThYkHnofREy7s7otOKZLGqVLSZhZqJSkkjLM+saUMwOkYrm46Ae+5Ukmc6wwFx7ga8z+FTaL4Q/CknrwiNuTpiNujRfyVo8M6tSjLFbZq0Ye7IQ5U5NCGqwPR6c94pDM+aYSGOtheqO9xjiLM2hO2m/PuRaZWJLe8kEjmnNQ8Kn/q5RruZkdfA7/Y/b0SBKnKBIo4UkU5p1HUZjk40AiXMynXb7qt0VJMozaAEzBk1SsD3eahpuKaAGpAjN8Pp+lINKUmQoPwqxChBFG1SoEZ+UQaGtiijW14rj7+auNj7z2SMQALlSQ70CCSeJQ0IzyNYpfVH/wAfDbvHdz5bhDbbrQaJcOBDcj0z6uGDhjTPwdvTTJ6wExO24cEOgqbysE60SymWVFKUlRQ/tEEUShIqetA2pZszpOFxZoffvyT+BqzzWKRY8QBQevXYH94xG4RzwMvmnS8DdMrkwWeaidMAXgIIRXPTDWqgah9W6ww3CiBudxs8kMyZtAvXlAKDH5xoEBeOlzB5KQ3v2fStyAyt2z679c+uUcNNtQmoMc5ujlir0ucihdJ0IyP3tmOURJh2zN0NLahxI4JDNlKlGvnGTLE/CndPtc2QKuZa3zgTsTm3VhHWyh3gd4hsg3U5SoTZrxWWUOFKWtpQlzm0pC7HZTasWgq9VqByBeHP5ba2KF1dbqC5SiXoOTmFJHuc4lWD2gUhlQJFUY5cpyJeJQG8SBZUFOl0htopBKpBcw3DQKG5H2OQHdeEDmSD4NrDWSnZkrJKapt2iFSA/AQcqZGuTksI7rW3yQsxrtCk0u2xAuVjJxhIIq0WklI2SOImLdG+qlPOIkpySOtANNxFHSCFmeQqsYLRTtysmu3TUTTMSVIU9G0G2xDRhzubiLLxYK3mwxOiDDRHvVFG+7Wst3iydgkA/wBKYFFDFH8DQEL+FhGC8o8z+UTJuu2Ts+9bUqKsI6vSNGKOSU0FQzYWP4a8gjUdlkobGvENQhx4OzeTxsQdE5tZCqnHg/Cvp3ZeWhdcZBAUkEhsKgCmoDmhzcQeDofDntEk922y7+c86BG3fd8uWsKSgJIyISkkdMTw8/AYcNpjBfvzVW4l16k/L7o6bYwkhYOFJ4kZlQY+VCN9jrBWPzNLHCzseXspcuF0F2ZJQGWkGppXCEqGYYOdiK5EagxzHONsdw87HP8AOiglEWW0qlLTOlMhQOaRVKiDkS9CHplmOtHRNeDG/Xx4j8j9qoeQdN0VbrHMtKF2srSSktMClgLJASApKdiCKUqC2wDE9mHeMPR12oacdCffeiDMQXpStOLQPsAA/OmcNio/D6IznGbUDUcuPf8AlEiShaa4+/qGoArJnJcqX5Pu+YMzonWPg9a/XrXhsOgRrdoNKIczIJKOsM8oUFAsRAZWB4ookUhYbCbzbJZLSUmfZ5api1NjTilLPNSpZBVWlXyjFmwQBJHAJ/8AmtrUKuw3LZJf5kqQhKgrD3i1zJndnQkLxYX0UMiDFW4VrHDjpfj4E/RAlxoqm6I5Siksr2tjwu/vIVVJHOnjDIpwsbe9xv8AVYr/AIrXZk0BhxJIzcMSOYdj1aODSbO6JM+AsoNN+IQ1qs6JgqB977/LRoks48VnxTPiOmyxd+9kySVIJ6GvkflnWjwliMG2V2Zxo/L9LfwfSbSMpHv37Cys655oeg84Qd0XONq9VqtxUZQE6SUllAiEZYXxmnikZrg7UKGHXTeKZDV8Fa19h2rFXVei619FV26mJp3jrUZQq45WUCI5cmFgs4YL51fltDMMYcLQ3uo0iZheGWxFDtVpPNvWGGCjdqpVqJoGQxK0eoHhBi4eaEWk9wTOVIJSlOalmpO/OOMWiTe8Zi7gFq7RMQsplAAoloCXFCTu/wC8AhtpJWKzMwGQ7k2jbpswSVAbDPqfpGJ/qBznMaeAQcRIXNB70cq55a80DwAjy3XHmUqMVI3YqyRdaJQPdoAzLgAqPidYfwMmaQZyT47Krp5ZXDO78KM3E5KUNQgCYrFQpIPsg1ruI93g5WkZWpxjo2m7WVv68lyx3cs4lBSVLASkgULUU7qYimx6Q7icQ5rSW77E8votrCRNkFnY7d6Qzr5nTyE96oqegHAE7kpQAkN0jGgdJ1ltdqe8352neobHZLdFobrmmZMVLoSE4gcnAISXG7qT1fRo9I3F5XZX+SRkaGtDhxNLXWK6fyilQStVVS0kEVZyHU2bCkJYnEEyNLC5o4kVt801hCxgc94a7TQOv5V+kqRZM8RQEqzZSS2bEAKJo/kSNYfdJdFtkjuOvPhx+tJO9UOmSUKII5KG46+oPQwbMJGgjxHv6qjjSkElBox2LZg0qPMEdREWJBr7PvZcCozJLMtDgHKtUnVJPwOo5uBzX5uw/f696I15bq1QWhziNf1A6/SLNOUZfRFe7rO3x4j7+H0TBVl/iT+VLShSUuo4yQrIOSquJ+rudc1Q/wDi/Ebae7b9fTw2muu+EUR3pUUsdDzGR5iHw6xaXKss0zCtJ2IPkYpI22kKETbVgTF4csRajUJcUgcQuNt70qEK2XbjhwGqdHqU80nTplygboAHZhofr4oRBVhtDcIOJOjjJ+R9k9C3WKiO+0RR7kFw4BRTNi+VAcxTMxxFCxCy0dEut1hSvkd9fr0PmIHlLdk9DinN0d79+7WdvG7mooAjfT6GKua2RtOC1YsRxaUknXaU1RUbfecZ0mCLNY9uSeZiQ7RyDMhJy4Fbe6T8oQfhWv8Ah7J5cEbOR3hDT5BSWUG+fSEXxuYacERjw4WFS0DRLUY5SuKEcuRyF4QEjqYMx1UEMi9VLDvGgwAoRKmhEGAHBQSrpCAIvGwA2UJ5JTGTawgOc8h1NIJLI0N1SjoTIaCdXXMzfPWBAWs7EMs0Fruyqca1A6oPoUfvCuLwrZ2FjuISM8f9dHmPoU6XZynMR4TF9HzYZ3aGnNZbtDSgawgJ3A6KKtffw7x6/onG5gBahpINLF9o+ydoM5c2zpE1KyCUYghaVMAWxMFJo+b/AD1m9IOw5cyZpLSbBGo86XpsBj4TE2OQ5SNO4oOw9l7cskCQmWWPFMmJZgHPCkqJoCfCJb0rHRETHHyP1IA+addiIHH4740O5aa4Oz6ZDjF3s6ZRa6SwwrglhWW9akt0hmCKYv8A5E+lbNGtXxNfbQC0g+c4h4DRTRsO9M5yQhQYYFhuFcpKSNXdLP5DONJpLxrqO535RC7Ka2PeENe0gHDMSkBK3NNF0xJ86jqYNh3ltscdR9OCo48Qqxd61IfCxAzVwhSeqmfD8G2ievax9XoeWtH9/XxVqLm+H0UZdlQ2FS3rTCDQ81KYMctdDpEukfeZo9fwFTQaEom7LFKKvzCsSnwzg3GnPCqgqApqs4y1qOeWTL2azbtPA8x6eqNFlzdrbihb6sCJU0iSsrlsClRDUOYNGLVEFw0zpY/7BR4hWkqN/YNjgUuVL1anwhgOrsn/ACocARmbtx7v1y9F1SMf+P8A1/8A7/1dfapfU/8AH6fr6eG0Xm8fr+0KUQ0CqWomLLlwGOVaViZkVLVRzVYmbFS1CLVYJsVLUIsXSuBuaqFqgsAj7MBc1Wa4tOiU2q7waop/KcvAnLx89IoSeKfjxFinJXOsAVRQYjwI5QtNG16bjmc3UHRBTbEpAYgLRscv3T9Yz5GlopwsJlsrXG9igVWKU+cxPJgpvHWFDh4jqHUmRLJ3FJoRTi+jlynLnNnWLA81BCvE8aH0+sMMlIFAqhavu8P2YMJTSqWhSTPOlfhE/wAh96aqDGFKXPqKY1vTYHkIr1gJF9o/IKCyxWwWxsFBXOjxpsBrVY0zNdFsew0z89v+XM/1SYrK2gCs3GCmeY+63E1IMAoHQrLeAd0ttEsDICAnovByG3RhDDBaHxmGIujcLH8DaVxE0qUmcxdVWqBudH5Q0YwBlajxRNBsqa1smSoh6qKhuMQDHwfziobZeB3JxjQzId91KetAWuWtJ7lRxJoxRiDhSBtXLIgCIY1xaHtPaGh764FOFzWuLCOydR3XxH4Su0TFKASVKKU+yCcum3SG2Na05gKJ3Qi8nsk6BXWNOEEd7hxDIY6HQkgU/Z4DM4kimXXgm4YoiwudKAa0FE/oIJSFBTl8QNXr1B3hnsubQ2SuYgrk+zgMR7Jy5bpPT4MdYmN52O4935rngDUbK2Qsg4h7SRxA5KTkX3pQ8mOhMDcB8J2O3cfeylruKYWC65c5eFUzBKWCZaixIWGdBOQLebCF5cQ+IZmi3DQ945+9k1DG2R2VxocPFJr2u/uJqpeJK8OoyIIB8M8odw83Xxh1UqOBikLQQfuEEEgEEjEl6gkh+RIy6weyQRdH3quIa2njVvvQq68pqZx/LlJlqGgJUV9Sc1/F92cMIdhx2nW36fr6eCJK5sh7Io/X9pQoRoApdVmLrlEmJXL4KjqVSFITYgtVC1S72BuCoWLvfwFwVCxcXMeAuCgMQs0j3stDqOh+UAcEzGXcEOSOo3y/2hV4TQKGVZUbCA9W08EQSHmsLGAt5cJjlyiY5cvhHLlfY5GNTeMXY3MaVXGhaMVYlE6IQNTrzbWGeqe7QaBCEgHeUbYMCVAISSTms/KGIQxrgG6nmhSBzm25PbOvONNiQkC1vYJf9o/yLHrLP/bFZ/hWT0hpH5j7r0QiE1jlCT0QVpQxdoRUmDByYYoGVFsyKFxSCfDKOBARs9qMxJLOSWDB6sBpEtobIheTuqu5i+Zda53UdmVw80pTZWJOLUMFfI/LwG8Va7K7L6fdEIJbm8lXLSKpORyOytD00P0iXWO0N/spa6+yfZ97qkoKTsQfXUGCWHt7lSy0omzrSnMflL9oZlKhqOY03BbeAuBd/wAh8x7+aM1w8ii7znBUoSFSkCYkDBMHvDRqe8OdToNAwtLJOtDjR3HL/BTT5Q6Pq8osbFZZSW+ca+hSzHlvhxHv5Kiajy0+94u116FWe3LqNQdj74/5R9rskpUpKkqxT1NRwCTq6QC6tMwVdfaTjlljkIIpg+X6+nhs05kZZYNuKQrEaoKUCpUYuFNKsmLAKaVZXEkLsq53kCcoLVzvoWe9oUdWq1zzCrnk7K4jA3VC5m5gJBKKG8kPMtO0QWBEDFQZx3MVyhEyhZOPLLZUTHLlExy5deOXJpcqPaPMD784bwrL1QJnUFKbUnWpbwMEkJLiOC5uwRNhHGPH4QXDjtqknwpzIjUakZAtX2EV/aU88Q/oUflFZvgWT0gLjPvivTWhFYtKuYmLAqvFUmXF8ysCoKlRbMiAqCpMTmVwomTE5kVpUDKicyva+MuJtXBV6rSohlMUmhASkU5MIB1DAcwGvPVPux8z4+rcezyoIGdIYkfZGh8oZY/MLSbhRpcmIxJf3ksFcxkFeFAfDnHNOR1cDt+EQ9pt8Rv798EMijg+yc/kRzH01MFdrqN1Rrq3VyZeMdyojEKylaVrhf8ASrTY+MDzZf7G7cR74hHGvZPkl9qklTkj8xL4xqWzV1GvnvDEbwyh/tO3d3fj05Lj2tePH8/lASykHjBUnUOx6gwy4Fw7J1RsPK1hqQW08PofL6IW0pANHwnLpBIzY134rpmhr+z8J1HvuU02Nc8EoQorAckAkLAzr+v/AFdfaEZW4YgE9k/+v/z9PDazWOkFga/X9pVNlqABKSAciQQD0OsaDXNOgKplNWQhVqi5IaLKlVKVAH4oDRuquoEwo+VzlyqVMAgVKQ1UrmmOyq4aqFGOpXCqWYo7ZWCqeBIlLNCPKrVXyxHLlAxy5dEcuT66EtLB6n78o08I2mWlMQbVA58vWmogW5RRsirB7Xh9N2hnDjtqkmyayjGk1JSBaXsSv+1SuaiP/im/tETD+srL6QH9R98QvVRGesIL7DHWuLV9gjrUhq53cdasAoqlxOZWGij3UTmVwuGXE2r2omVE5la1BUtosHKwNqC5eJPNPqNfLPxO0cHZXeP1RR2m94+n6QqRhL/HIjIg8iKQU9oUua+jYVdrkMXHskOnpseYyi0b7FHdWe0DUbHb3zCoSnEMBz9w8/09Dpz6mLk5TmHn+fL6Lmm9PRF2ScFLTNKcUyUQVp1mJFMX+Ia7+cCkYQ0sB0dseR/Caif2g8iyN+9VdrDZ5iUzLOliC0wBOAB/Zcb5hxT0i3R/XRuLJT4cfFGxToX0+IePBZRR0OXw5j7rGtXEboMbwBlf8J+R5j78xooy77mSHTLmkB3ZPEOrGggckUMmr26/NHZJLCcrXafL37KX3pfUye2Mmj60Oxw5A6OPi5NYWthvq9B9PNc+Rz/iSxSt4kknUqlKpU3aIpWAVSlmJpXAUCYhSq1GOVlWoxQqwCqWYoVcBUlUCV6WeEeVWmuqyjlyrjly+jly0CaS2/lb0b5xrM7MXklHi3eaGxfdRsYXBRkTYhU/TeGsP8SHJsmUpUaLUnIFoexq/wC1yf8A3PjLmD5xMn/TKzceP6j4fcL2BIjMWEFJohWXWjlal1oi1alxolQvgiOtWDTuo4Ym1YBcaOXKBTFrVgqsi40ix1FIjCQbCHtUpjTIhx028C48IvG6xqiPZlOmx2VUni/LPvHh5LyHgcj4HSLP7PbHn4fpXj7XYPHbx/eyWThDbUEilyfasKe+BwqQRjO+gXzOhGuepirWC+qOx2/H4RmuJ1G6Q3j2oRjxSEGo40qogv7SQAXKT4EaZAwdkJy5XnwI37j4pkN1tZyfbVKzPgKCGcxUtYAhjMaKq4CrVOjqVg1QK4lTSjiiFalHFELlAqjlKgpUVVgFWpcVKlUrXA3IgCpKoDaJS//Z",,New York,NY,10022,550 Madison Ave
31,Staten Island Children's Museum,"The Staten Island Children?s Museum offers 40,000 square feet of interactive exhibits as well as a 4-acre East Meadow, and a picnic and performance pavilion.","Founded in 1974 and located in a historical setting on the grounds of Snug Harbor Cultural Center & Botanical Gardens, the Staten Island Children?s Museum offers 40,000 square feet of interactive exhibits as well as a 4-acre East Meadow, and a picnic and performance pavilion.","Must See: The human-sized ant hill, Big Games exhibit (life-sized chess, giant dominoes, etc.), and the Sea of Boats (outdoor, sea-faring, soft surface play area).",Open Tuesday - Friday 12 PM - 5 PM (school year) and 10 AM - 5 PM (summer and school holidays); Saturday and Sunday 10 AM - 5 PM; closed most Mondays,http://sichildrensmuseum.org/,Yes,R,-74.101755,40.644051,http://sichildrensmuseum.org/wp-content/uploads/2013/12/calimage02-300x252.png,http://sichildrensmuseum.org/wp-content/uploads/2013/12/calimage02-300x252.png,,Staten Island,NY,10301,1000 Richmond Terrace
32,Staten Island Institute of Arts and Sciences (Staten Island Museum),"Founded in 1881 by fourteen of New York City?s first environmental activists, the Staten Island Museum houses artifacts and specimens from ancient to contemporary periods.  Holdings are organized into three main collections: Natural Sciences, Fine Art, and History Archives and Library. ","Founded in 1881 by fourteen of New York City?s first environmental activists, the Staten Island Museum is the place for exploring the dynamic connection between natural science, art and history since 1881.  The museum's holdings are organized into three main collections: Natural Sciences, Fine Art, and Historical Archives and Library.  "" The natural science collections encompass over 500,000 botanical, biological, anthropological and mineral specimens including bird nests and eggs, mounted animals, fossils, shells, and a significant collection of insects, including important type of specimens. Based upon a 19th-century model, the art collection includes works spanning prehistory to the modern period, with representations of diverse world cultures from both the Western and Non-Western traditions. The historical collections include a library, maps and atlases, early films, audio recordings, photographs, historical objects, ephemera and archival documents reaching back to the 17th century."" - from http://en.wikipedia.org/wiki/Staten_Island_Museum","Must See: The entomology collection (comprising more than 500,000 specimens) and the ""Return of the 17-year Cicadas"" exhibit.",Open Monday - Friday 11 AM - 5 PM; Saturday 10 AM - 5 PM ; Sunday 12 PM - 5 PM ,http://www.ny.com/cgibin/frame.cgi?url=http://www.statenislandmuseum.org/&frame=/frame/museums.html,?,R,-74.077664,40.644369,http://www.statenislandmuseum.org/images/uploads/heros/home-exhib-diverman2.jpg,http://www.statenislandmuseum.org/images/uploads/heros/home-exhib-diverman2.jpg,,Staten Island,NY ,10301,75 Stuyvesant Pl.
33,Trolley Museum of New York,"The museum shares the rich history of rail transportation and the role it played in the Hud?son Valley region through displays of trolley, subway and rapid transit cars from the United States and Europe. ","""The goals of the museum are to offer a ride to the public and through exhibits and educational programs to share the rich history of rail transportation and the role it played in the Hud?son Valley region.  In addition to static displays of trolley, subway and rapid transit cars from the United States and Europe, an excursion ride runs 1? miles from the foot of Broad?way in downtown Kingston to picnic grounds on the shore of the Hudson River at Kingston Point. "" - http://www.tmny.org/tmnyinfo.html",Must See: Trolley ride to the Hudson salt marshes.  Don't miss the insides of the trolleys on exhibit. ,Open weekends and holidays 12 PM to 5 PM (May 9 - October 12),http://www.tmny.org/,?,R,-73.980279,41.919672,http://www.tmny.org/Lee+Sara_Schopmeier_24Chrysler.jpg,http://www.tmny.org/Lee+Sara_Schopmeier_24Chrysler.jpg,,Kingston,NY,12401,89 East Strand
34,Wings of Eagles Discovery Center,"Wings of Eagles Discovery Center has an wide range of aircraft, replicas, missiles, flight simulators and other items on display for public viewing.","Wings of Eagles Discovery Center has an wide range of aircraft, replicas, missiles, flight simulators and other items on display for public viewing.  The museum has an extensive collection of aircraft on display for public viewing. Most were originally used in military settings for either training or combat purposes ranging from World War II to the present. ","Must See: The flight simulators, 18 aircrafts on display, and the General Electric GAU-8A ?Avenger? 30mm Revolving Cannon.",Open Tuesday - Friday 11 AM - 3 PM; Saturday 11 AM - 4 PM (Spring Hours),http://www.wingsofeagles.com/,Yes,R,-76.912687,42.155164,http://www.williammaloney.com/aviation/WingsOfEaglesMuseum/WingsOfEaglesDiscoveryCenter.jpg,http://www.williammaloney.com/aviation/WingsOfEaglesMuseum/WingsOfEaglesDiscoveryCenter.jpg,,Horseheads,NY,14845, 339 Daniel Zenker Dr
